register_id,name,addresses_road_id,addresses_road_name,addresses_start_street_number,addresses_end_street_number,addresses_neighborhood_id,addresses_neighborhood_name,addresses_district_id,addresses_district_name,addresses_zip_code,addresses_town,addresses_main_address,secondary_filters_id,secondary_filters_name,secondary_filters_fullpath,secondary_filters_tree,secondary_filters_asia_id,geo_epgs_25831_x,geo_epgs_25831_y,geo_epgs_4326_lat,geo_epgs_4326_lon
?99400603212,"Parada de taxis * Pg Taulat, 136",701278,Pg Taulat,136,,69,Diagonal Mar i el Front Marítim del Poblenou,10,Sant Martí,8005,BARCELONA,TRUE,63733072,Parades Taxi,Planol BCN >> Transports i serveis relacionats >> Transports adicionals >> Parades Taxi,651,6.5103E+13,433966.8655,4583738.216,41.40247477,2.210018475
?99400603228,"Parada de taxis * C Lope de Vega, 92",180401,C Lope de Vega,92,,68,el Poblenou,10,Sant Martí,8005,BARCELONA,TRUE,63733072,Parades Taxi,Planol BCN >> Transports i serveis relacionats >> Transports adicionals >> Parades Taxi,651,6.5103E+13,433479.5702,4583929.04,41.40415331,2.204168328
?99400602997,"Parada de taxis * C Lope de Vega, 132",180401,C Lope de Vega,132,,68,el Poblenou,10,Sant Martí,8005,BARCELONA,TRUE,63733072,Parades Taxi,Planol BCN >> Transports i serveis relacionats >> Transports adicionals >> Parades Taxi,651,6.5103E+13,433314.1388,4584084.779,41.40554229,2.202172179
?99400602998,"Parada de taxis * Pg Gràcia, 34",148307,Pg Gràcia,34,,7,la Dreta de l'Eixample,2,Eixample,8007,BARCELONA,TRUE,63733072,Parades Taxi,Planol BCN >> Transports i serveis relacionats >> Transports adicionals >> Parades Taxi,651,6.5103E+13,430332.4191,4582487.479,41.39090308,2.166686301
?99400603015,"Parada de taxis * C Lepant, 385",178308,C Lepant,385,,33,el Baix Guinardó,7,Horta-Guinardó,8025,BARCELONA,TRUE,63733072,Parades Taxi,Planol BCN >> Transports i serveis relacionats >> Transports adicionals >> Parades Taxi,651,6.5103E+13,430602.248,4584571.849,41.40969963,2.169674544
?99400603018,"Parada de taxis * C Aribau, 149",23403,C Aribau,149,,8,l'Antiga Esquerra de l'Eixample,2,Eixample,8036,BARCELONA,TRUE,63733072,Parades Taxi,Planol BCN >> Transports i serveis relacionats >> Transports adicionals >> Parades Taxi,651,6.5103E+13,429262.8694,4582689.836,41.39263228,2.153870809
?99400603022,"Parada de taxis * C Nicaragua, 146",227800,C Nicaragua,146,,19,les Corts,4,Les Corts,8029,BARCELONA,TRUE,63733072,Parades Taxi,Planol BCN >> Transports i serveis relacionats >> Transports adicionals >> Parades Taxi,651,6.5103E+13,427802.4927,4582120.949,41.38737878,2.13647206
?99400603024,"Parada de taxis * Pg Gràcia, 126",148307,Pg Gràcia,126,,31,la Vila de Gràcia,6,Gràcia,8008,BARCELONA,TRUE,63733072,Parades Taxi,Planol BCN >> Transports i serveis relacionats >> Transports adicionals >> Parades Taxi,651,6.5103E+13,429637.9926,4583255.007,41.39775549,2.158291748
?99400603272,"Parada de taxis * Pl Catalunya, 14",74404,Pl Catalunya,14,,7,la Dreta de l'Eixample,2,Eixample,8010,BARCELONA,TRUE,63733072,Parades Taxi,Planol BCN >> Transports i serveis relacionats >> Transports adicionals >> Parades Taxi,651,6.5103E+13,430691.8416,4582071.857,41.38719076,2.171032578
?99400603275,"Parada de taxis * Pg Marítim de la Barceloneta, 39",197903,Passeig Marítim de la Barceloneta - Oriol Bohigas,39,,3,la Barceloneta,1,Ciutat Vella,8003,Barcelona,TRUE,63733072,Parades Taxi,Planol BCN >> Transports i serveis relacionats >> Transports adicionals >> Parades Taxi,651,6.5103E+13,432842.3648,4581859.125,41.38545715,2.196775251
?99400603233,"Parada de taxis * C Manila, 42",192003,C Manila,42,,21,Pedralbes,4,Les Corts,8034,BARCELONA,TRUE,63733072,Parades Taxi,Planol BCN >> Transports i serveis relacionats >> Transports adicionals >> Parades Taxi,651,6.5103E+13,426921.0762,4582405.795,41.38986467,2.125896567
?99400603234,"Parada de taxis * Av Madrid, 214",187207,Av Madrid,214,,18,Sants,3,Sants-Montjuïc,8014,BARCELONA,TRUE,63733072,Parades Taxi,Planol BCN >> Transports i serveis relacionats >> Transports adicionals >> Parades Taxi,651,6.5103E+13,427667.3262,4581464.89,41.38145777,2.134933881
?99400603238,"Parada de taxis * C Sancho de Ávila, 22",311703,C Sancho de Ávila,22,,66,el Parc i la Llacuna del Poblenou,10,Sant Martí,8018,BARCELONA,TRUE,63733072,Parades Taxi,Planol BCN >> Transports i serveis relacionats >> Transports adicionals >> Parades Taxi,651,6.5103E+13,432160.0671,4583203.863,41.39751158,2.188464935
?99400603247,"Parada de taxis * Av Joan XXIII, 9999",244209,Av Joan XXIII,9999,,20,la Maternitat i Sant Ramon,4,Les Corts,8028,BARCELONA,TRUE,63733072,Parades Taxi,Planol BCN >> Transports i serveis relacionats >> Transports adicionals >> Parades Taxi,651,6.5103E+13,426588.7376,4581677.375,41.38327384,2.122010149
?99400603254,"Parada de taxis * Pg Potosí, 2",701357,Pg Potosí,2,,59,el Bon Pastor,9,Sant Andreu,8030,BARCELONA,TRUE,63733072,Parades Taxi,Planol BCN >> Transports i serveis relacionats >> Transports adicionals >> Parades Taxi,651,6.5103E+13,432991.6851,4588197.306,41.44255573,2.197858978
?99400603081,"Parada de taxis * C Mallorca, 422",191204,C Mallorca,422,,6,la Sagrada Família,2,Eixample,8013,BARCELONA,TRUE,63733072,Parades Taxi,Planol BCN >> Transports i serveis relacionats >> Transports adicionals >> Parades Taxi,651,6.5103E+13,431108.1852,4583891.825,41.40361841,2.175804751
?99400603083,"Parada de taxis * C Aribau, 72",23403,C Aribau,72,,8,l'Antiga Esquerra de l'Eixample,2,Eixample,8011,BARCELONA,TRUE,63733072,Parades Taxi,Planol BCN >> Transports i serveis relacionats >> Transports adicionals >> Parades Taxi,651,6.5103E+13,429637.6758,4582307.659,41.38922303,2.158398025
?99400603258,"Parada de taxis * C Larrard, 57",176608,C Larrard,57,,30,la Salut,6,Gràcia,8024,BARCELONA,TRUE,63733072,Parades Taxi,Planol BCN >> Transports i serveis relacionats >> Transports adicionals >> Parades Taxi,651,6.5103E+13,429219.0834,4584951.172,41.41299543,2.153082696
?99400603259,"Parada de taxis * C Marina, 19",197302,C Marina,19,,3,la Barceloneta,1,Ciutat Vella,8005,BARCELONA,TRUE,63733072,Parades Taxi,Planol BCN >> Transports i serveis relacionats >> Transports adicionals >> Parades Taxi,651,6.5103E+13,432837.1718,4582052.6,41.3871993,2.196691698
?99400603260,"Parada de taxis * C Balmes, 391",32700,C Balmes,391,,25,Sant Gervasi - la Bonanova,5,Sarrià-Sant Gervasi,8022,BARCELONA,TRUE,63733072,Parades Taxi,Planol BCN >> Transports i serveis relacionats >> Transports adicionals >> Parades Taxi,651,6.5103E+13,428019.2682,4584210.661,41.4062194,2.138816135
?99400603269,"Parada de taxis * Rda Dalt (Besòs), 109",701267,Rda Dalt (Besòs),109,,40,Montbau,7,Horta-Guinardó,8035,BARCELONA,TRUE,63733072,Parades Taxi,Planol BCN >> Transports i serveis relacionats >> Transports adicionals >> Parades Taxi,651,6.5103E+13,428352.8274,4586559.671,41.42740573,2.142528211
?99400603271,"Parada de taxis * Av Joan XXIII, 26",244209,Av Joan XXIII,26,,20,la Maternitat i Sant Ramon,4,Les Corts,8028,BARCELONA,TRUE,63733072,Parades Taxi,Planol BCN >> Transports i serveis relacionats >> Transports adicionals >> Parades Taxi,651,6.5103E+13,426647.299,4582000.059,41.38618546,2.12267139
?99400603276,"Parada de taxis * Rda Sant Pere, 4",309406,Rda Sant Pere,4,,7,la Dreta de l'Eixample,2,Eixample,8010,BARCELONA,TRUE,63733072,Parades Taxi,Planol BCN >> Transports i serveis relacionats >> Transports adicionals >> Parades Taxi,651,6.5103E+13,430701.1945,4582190.85,41.3882633,2.171130821
?99400603000,"Parada de taxis * C Pelai, 20",250904,C Pelai,20,,1,el Raval,1,Ciutat Vella,8001,BARCELONA,TRUE,63733072,Parades Taxi,Planol BCN >> Transports i serveis relacionats >> Transports adicionals >> Parades Taxi,651,6.5103E+13,430295.2595,4581914.303,41.38573746,2.166307825
?99400603231,"Parada de taxis * E.M. Universitat, 1",537295,E.M. Universitat,1,,10,Sant Antoni,2,Eixample,8007,BARCELONA,TRUE,63733072,Parades Taxi,Planol BCN >> Transports i serveis relacionats >> Transports adicionals >> Parades Taxi,651,6.5103E+13,430099.9714,4581931.331,41.38587388,2.163970387
?99400603241,"Parada de taxis * Av Diagonal, 661",144601,Av Diagonal,661,,20,la Maternitat i Sant Ramon,4,Les Corts,8028,BARCELONA,TRUE,63733072,Parades Taxi,Planol BCN >> Transports i serveis relacionats >> Transports adicionals >> Parades Taxi,651,6.5103E+13,425527.5769,4581708.974,41.38346092,2.109316372
?99400603245,"Parada de taxis * Av Meridiana, 42",209900,Av Meridiana,42,,66,el Parc i la Llacuna del Poblenou,10,Sant Martí,8018,BARCELONA,TRUE,63733072,Parades Taxi,Planol BCN >> Transports i serveis relacionats >> Transports adicionals >> Parades Taxi,651,6.5103E+13,432055.3302,4583095.153,41.39652362,2.187224338
?99400603246,"Parada de taxis * C Deu i Mata, 66",100107,C Deu i Mata,66,,19,les Corts,4,Les Corts,8029,BARCELONA,TRUE,63733072,Parades Taxi,Planol BCN >> Transports i serveis relacionats >> Transports adicionals >> Parades Taxi,651,6.5103E+13,427763.8721,4582253.367,41.38856794,2.135994393
?99400603249,"Parada de taxis * Pl Espanya, 2",114000,Pl Espanya,2,,11,el Poble-sec,3,Sants-Montjuïc,8004,BARCELONA,TRUE,63733072,Parades Taxi,Planol BCN >> Transports i serveis relacionats >> Transports adicionals >> Parades Taxi,651,6.5103E+13,428903.5363,4580649.105,41.37422046,2.149812515
?99400603002,"Parada de taxis * Ctra Prat, 40",265504,Ctra Prat,40,,13,la Marina de Port,3,Sants-Montjuïc,8038,BARCELONA,TRUE,63733072,Parades Taxi,Planol BCN >> Transports i serveis relacionats >> Transports adicionals >> Parades Taxi,651,6.5103E+13,427470.7566,4579048.725,41.35967858,2.132872284
?99400603004,"Parada de taxis * Pg Maragall, 391",194406,Pg Maragall,391,,36,la Font d'en Fargues,7,Horta-Guinardó,8032,BARCELONA,TRUE,63733072,Parades Taxi,Planol BCN >> Transports i serveis relacionats >> Transports adicionals >> Parades Taxi,651,6.5103E+13,430155.0889,4586592.555,41.42786063,2.164091606
?99400603005,"Parada de taxis * Pg Gràcia, 79",148307,Pg Gràcia,79,,7,la Dreta de l'Eixample,2,Eixample,8008,BARCELONA,TRUE,63733072,Parades Taxi,Planol BCN >> Transports i serveis relacionats >> Transports adicionals >> Parades Taxi,651,6.5103E+13,429959.7886,4582857.384,41.39420233,2.16218684
?99400603006,"Parada de taxis * Pg Fabra i Puig, 264",119003,Pg Fabra i Puig,264,,46,el Turó de la Peira,8,Nou Barris,8031,BARCELONA,TRUE,63733072,Parades Taxi,Planol BCN >> Transports i serveis relacionats >> Transports adicionals >> Parades Taxi,651,6.5103E+13,431047.1122,4586850.657,41.43026232,2.174736889
?99400603008,"Parada de taxis * C Gironella, 2",146403,C Gironella,2,,24,les Tres Torres,5,Sarrià-Sant Gervasi,8017,BARCELONA,TRUE,63733072,Parades Taxi,Planol BCN >> Transports i serveis relacionats >> Transports adicionals >> Parades Taxi,651,6.5103E+13,427299.0885,4582776.589,41.39323852,2.130372996
?99400603016,"Parada de taxis * C Aragó, 183",18505,C Aragó,183,,8,l'Antiga Esquerra de l'Eixample,2,Eixample,8011,BARCELONA,TRUE,63733072,Parades Taxi,Planol BCN >> Transports i serveis relacionats >> Transports adicionals >> Parades Taxi,651,6.5103E+13,429618.1301,4582098.475,41.38733727,2.158188567
?99400603020,"Parada de taxis * C Badajoz, 126",30500,C Badajoz,126,,66,el Parc i la Llacuna del Poblenou,10,Sant Martí,8018,BARCELONA,TRUE,63733072,Parades Taxi,Planol BCN >> Transports i serveis relacionats >> Transports adicionals >> Parades Taxi,651,6.5103E+13,432532.5915,4583560.132,41.40075174,2.192881129
?99400603104,"Parada de taxis * G.V. Corts Catalanes, 692",169409,G.V. Corts Catalanes,692,,7,la Dreta de l'Eixample,2,Eixample,8010,BARCELONA,TRUE,63733072,Parades Taxi,Planol BCN >> Transports i serveis relacionats >> Transports adicionals >> Parades Taxi,651,6.5103E+13,430946.201,4582764.323,41.39344946,2.173995622
?99400603106,"Parada de taxis * C Balmes, 335",32700,C Balmes,335,,26,Sant Gervasi - Galvany,5,Sarrià-Sant Gervasi,8006,BARCELONA,TRUE,63733072,Parades Taxi,Planol BCN >> Transports i serveis relacionats >> Transports adicionals >> Parades Taxi,651,6.5103E+13,428373.3068,4583870.643,41.40318862,2.143091666
?99400603115,"Parada de taxis * C Pelai, 54",250904,C Pelai,54,,1,el Raval,1,Ciutat Vella,8001,BARCELONA,TRUE,63733072,Parades Taxi,Planol BCN >> Transports i serveis relacionats >> Transports adicionals >> Parades Taxi,651,6.5103E+13,430528.6253,4581883.895,41.38548377,2.169102162
?99400603120,"Parada de taxis * C Doctor Carulla, 63",101405,C Doctor Carulla,63,,24,les Tres Torres,5,Sarrià-Sant Gervasi,8017,BARCELONA,TRUE,63733072,Parades Taxi,Planol BCN >> Transports i serveis relacionats >> Transports adicionals >> Parades Taxi,651,6.5103E+13,427459.3247,4583690.102,41.40148061,2.132180042
?99400603123,"Parada de taxis * Av Icària, 160",62609,Av Icària,160,,67,la Vila Olímpica del Poblenou,10,Sant Martí,8005,BARCELONA,TRUE,63733072,Parades Taxi,Planol BCN >> Transports i serveis relacionats >> Transports adicionals >> Parades Taxi,651,6.5103E+13,432887.4462,4582498.52,41.39121979,2.197243549
?99400603124,"Parada de taxis * Av Rio de Janeiro, 131",282650,Av Rio de Janeiro,131,,52,la Prosperitat,8,Nou Barris,8016,BARCELONA,TRUE,63733072,Parades Taxi,Planol BCN >> Transports i serveis relacionats >> Transports adicionals >> Parades Taxi,651,6.5103E+13,432000.2687,4588218.806,41.44266602,2.185989683
?99400603126,"Parada de taxis * C Comte d'Urgell, 14",349706,C Comte d'Urgell,14,,10,Sant Antoni,2,Eixample,8011,BARCELONA,TRUE,63733072,Parades Taxi,Planol BCN >> Transports i serveis relacionats >> Transports adicionals >> Parades Taxi,651,6.5103E+13,429936.0862,4581242.387,41.37965452,2.162090122
?99400603009,"Parada de taxis * Av Francesc Ferrer i Guàrdia, 13",198702,Av Francesc Ferrer i Guàrdia,13,,11,el Poble-sec,3,Sants-Montjuïc,8038,BARCELONA,TRUE,63733072,Parades Taxi,Planol BCN >> Transports i serveis relacionats >> Transports adicionals >> Parades Taxi,651,6.5103E+13,428639.277,4580109.873,41.3693404,2.146716247
?99400603011,"Parada de taxis * C Capità Arenas, 31",62507,C Capità Arenas,31,,23,Sarrià,5,Sarrià-Sant Gervasi,8034,BARCELONA,TRUE,63733072,Parades Taxi,Planol BCN >> Transports i serveis relacionats >> Transports adicionals >> Parades Taxi,651,6.5103E+13,426883.0096,4582597.498,41.3915878,2.125418158
?99400603017,"Parada de taxis * C Provença, 177",268003,C Provença,177,,8,l'Antiga Esquerra de l'Eixample,2,Eixample,8036,BARCELONA,TRUE,63733072,Parades Taxi,Planol BCN >> Transports i serveis relacionats >> Transports adicionals >> Parades Taxi,651,6.5103E+13,429437.2938,4582477.208,41.39073254,2.155981758
?99400603025,"Parada de taxis * Pl Duc de Medinaceli, 5",106205,Pl Duc de Medinaceli,5,,2,el Barri Gòtic,1,Ciutat Vella,8002,BARCELONA,TRUE,63733072,Parades Taxi,Planol BCN >> Transports i serveis relacionats >> Transports adicionals >> Parades Taxi,651,6.5103E+13,431359.5564,4581049.28,41.37803796,2.179133895
?99400603098,"Parada de taxis * Rbla Onze de Setembre, 61",201603,Rbla Onze de Setembre,61,,60,Sant Andreu,9,Sant Andreu,8030,BARCELONA,TRUE,63733072,Parades Taxi,Planol BCN >> Transports i serveis relacionats >> Transports adicionals >> Parades Taxi,651,6.5103E+13,432331.0718,4586811.076,41.43001504,2.190106911
?99400603099,"Parada de taxis * Pl Doctor Andreu, 3",137402,Pl Doctor Andreu,3,,25,Sant Gervasi - la Bonanova,5,Sarrià-Sant Gervasi,8035,BARCELONA,TRUE,63733072,Parades Taxi,Planol BCN >> Transports i serveis relacionats >> Transports adicionals >> Parades Taxi,651,6.5103E+13,427423.3157,4585323.367,41.41618746,2.131553425
?99400603102,"Parada de taxis * C Josep Pla, 59",143609,C Josep Pla,59,,69,Diagonal Mar i el Front Marítim del Poblenou,10,Sant Martí,8019,BARCELONA,TRUE,63733072,Parades Taxi,Planol BCN >> Transports i serveis relacionats >> Transports adicionals >> Parades Taxi,651,6.5103E+13,434155.7865,4584737.574,41.41149123,2.212169681
?99400603055,"Parada de taxis * C Llull, 351",186703,C Llull,351,,69,Diagonal Mar i el Front Marítim del Poblenou,10,Sant Martí,8019,BARCELONA,TRUE,63733072,Parades Taxi,Planol BCN >> Transports i serveis relacionats >> Transports adicionals >> Parades Taxi,651,6.5103E+13,434106.125,4584379.044,41.40825797,2.211614575
?99400603056,"Parada de taxis * C Ausiàs Marc, 102",28305,C Ausiàs Marc,102,,5,el Fort Pienc,2,Eixample,8013,BARCELONA,TRUE,63733072,Parades Taxi,Planol BCN >> Transports i serveis relacionats >> Transports adicionals >> Parades Taxi,651,6.5103E+13,431581.4948,4583003.326,41.39565639,2.181567098
?99400603058,"Parada de taxis * C Pau Claris, 178",247659,C Pau Claris,178,,7,la Dreta de l'Eixample,2,Eixample,8037,BARCELONA,TRUE,63733072,Parades Taxi,Planol BCN >> Transports i serveis relacionats >> Transports adicionals >> Parades Taxi,651,6.5103E+13,430045.9867,4583043.714,41.39588805,2.163196302
?99400603067,"Parada de taxis * C Bruc, 150",49509,C Bruc,150,,7,la Dreta de l'Eixample,2,Eixample,8037,BARCELONA,TRUE,63733072,Parades Taxi,Planol BCN >> Transports i serveis relacionats >> Transports adicionals >> Parades Taxi,651,6.5103E+13,430238.5318,4583214.366,41.39744177,2.165479669
?99400603069,"Parada de taxis * Rbla Catalunya, 110",74506,Rbla Catalunya,110,,7,la Dreta de l'Eixample,2,Eixample,8008,BARCELONA,TRUE,63733072,Parades Taxi,Planol BCN >> Transports i serveis relacionats >> Transports adicionals >> Parades Taxi,651,6.5103E+13,429700.9431,4582890.89,41.39448152,2.159086989
?99400603072,"Parada de taxis * C Viladomat, 138",361406,C Viladomat,138,,9,la Nova Esquerra de l'Eixample,2,Eixample,8015,BARCELONA,TRUE,63733072,Parades Taxi,Planol BCN >> Transports i serveis relacionats >> Transports adicionals >> Parades Taxi,651,6.5103E+13,429368.9156,4581442.958,41.38141141,2.155284532
?99400603076,"Parada de taxis * C Bergara, 9",357001,C Bergara,9,,7,la Dreta de l'Eixample,2,Eixample,8002,BARCELONA,TRUE,63733072,Parades Taxi,Planol BCN >> Transports i serveis relacionats >> Transports adicionals >> Parades Taxi,651,6.5103E+13,430454.033,4581968.187,41.38623651,2.168200431
?99400603078,"Parada de taxis * C Rector Triadó, 106",246703,C Rector Triadó,106,,15,Hostafrancs,3,Sants-Montjuïc,8014,BARCELONA,TRUE,63733072,Parades Taxi,Planol BCN >> Transports i serveis relacionats >> Transports adicionals >> Parades Taxi,651,6.5103E+13,428271.8813,4581249.199,41.37956924,2.142188837
?99400603079,"Parada de taxis * C Planella, 32",259705,C Planella,32,,25,Sant Gervasi - la Bonanova,5,Sarrià-Sant Gervasi,8017,BARCELONA,TRUE,63733072,Parades Taxi,Planol BCN >> Transports i serveis relacionats >> Transports adicionals >> Parades Taxi,651,6.5103E+13,427098.5131,4584274.866,41.40671469,2.127793623
?99400603080,"Parada de taxis * C Provençals, 7",267907,C Provençals,7,,69,Diagonal Mar i el Front Marítim del Poblenou,10,Sant Martí,8019,BARCELONA,TRUE,63733072,Parades Taxi,Planol BCN >> Transports i serveis relacionats >> Transports adicionals >> Parades Taxi,651,6.5103E+13,434114.761,4584032.034,41.40513325,2.211755668
?99400603084,"Parada de taxis * C Enric Granados, 77",110304,C Enric Granados,77,,8,l'Antiga Esquerra de l'Eixample,2,Eixample,8008,BARCELONA,TRUE,63733072,Parades Taxi,Planol BCN >> Transports i serveis relacionats >> Transports adicionals >> Parades Taxi,651,6.5103E+13,429536.0188,4582572.982,41.3916038,2.157151367
?99400603095,"Parada de taxis * C Diputació, 336",100800,Carrer de la Diputació,336,,7,la Dreta de l'Eixample,2,Eixample,8009,Barcelona,TRUE,63733072,Parades Taxi,Planol BCN >> Transports i serveis relacionats >> Transports adicionals >> Parades Taxi,651,6.5103E+13,431003.6594,4583052.054,41.39604589,2.174650073
?99400603101,"Parada de taxis * Av Paral·lel, 70",198804,Av Paral·lel,70,,1,el Raval,1,Ciutat Vella,8001,BARCELONA,TRUE,63733072,Parades Taxi,Planol BCN >> Transports i serveis relacionats >> Transports adicionals >> Parades Taxi,651,6.5103E+13,430512.8897,4580729.355,41.37508382,2.169046361
?99400603105,"Parada de taxis * C Vila i Vilà, 71",361009,C Vila i Vilà,71,,11,el Poble-sec,3,Sants-Montjuïc,8004,BARCELONA,TRUE,63733072,Parades Taxi,Planol BCN >> Transports i serveis relacionats >> Transports adicionals >> Parades Taxi,651,6.5103E+13,430538.8664,4580617.375,41.37407749,2.169369801
?99400603107,"Parada de taxis * Pg Gràcia, 66",148307,Pg Gràcia,66,,7,la Dreta de l'Eixample,2,Eixample,8007,BARCELONA,TRUE,63733072,Parades Taxi,Planol BCN >> Transports i serveis relacionats >> Transports adicionals >> Parades Taxi,651,6.5103E+13,430120.9131,4582718.368,41.39296427,2.164130037
?99400603108,"Parada de taxis * C Torras i Pujalt, 11",339203,C Torras i Pujalt,11,,25,Sant Gervasi - la Bonanova,5,Sarrià-Sant Gervasi,8022,BARCELONA,TRUE,63733072,Parades Taxi,Planol BCN >> Transports i serveis relacionats >> Transports adicionals >> Parades Taxi,651,6.5103E+13,427647.0319,4583649.687,41.40113353,2.134430208
?99400603109,"Parada de taxis * C Consell de Cent, 340",89004,C Consell de Cent,340,,7,la Dreta de l'Eixample,2,Eixample,8009,BARCELONA,TRUE,63733072,Parades Taxi,Planol BCN >> Transports i serveis relacionats >> Transports adicionals >> Parades Taxi,651,6.5103E+13,430496.6774,4582732.996,41.39312858,2.168622668
?99400603112,"Parada de taxis * C Rambla, 91",34308,C Rambla,91,,1,el Raval,1,Ciutat Vella,8002,BARCELONA,TRUE,63733072,Parades Taxi,Planol BCN >> Transports i serveis relacionats >> Transports adicionals >> Parades Taxi,651,6.5103E+13,430781.8449,4581515.431,41.38218696,2.172172531
?99400603129,"Parada de taxis * Av Rius i Taulet, 2",284101,Av Rius i Taulet,2,,11,el Poble-sec,3,Sants-Montjuïc,8004,BARCELONA,TRUE,63733072,Parades Taxi,Planol BCN >> Transports i serveis relacionats >> Transports adicionals >> Parades Taxi,651,6.5103E+13,429340.6051,4580494.261,41.37286433,2.155056583
?99400603130,"Parada de taxis * C Zamora, 35",369204,C Zamora,35,,67,la Vila Olímpica del Poblenou,10,Sant Martí,8005,BARCELONA,TRUE,63733072,Parades Taxi,Planol BCN >> Transports i serveis relacionats >> Transports adicionals >> Parades Taxi,651,6.5103E+13,432565.8733,4582724.446,41.39322774,2.193372314
?99400603063,"Parada de taxis * C Llull, 161",186703,C Llull,161,,68,el Poblenou,10,Sant Martí,8005,BARCELONA,TRUE,63733072,Parades Taxi,Planol BCN >> Transports i serveis relacionats >> Transports adicionals >> Parades Taxi,651,6.5103E+13,433196.911,4583478.403,41.4000711,2.200836719
?99400603068,"Parada de taxis * C Casp, 2",71600,C Casp,2,,7,la Dreta de l'Eixample,2,Eixample,8010,BARCELONA,TRUE,63733072,Parades Taxi,Planol BCN >> Transports i serveis relacionats >> Transports adicionals >> Parades Taxi,651,6.5103E+13,430610.0714,4582251.765,41.38880409,2.170034047
?99400603071,"Parada de taxis * C Pau Claris, 107",247659,C Pau Claris,107,,7,la Dreta de l'Eixample,2,Eixample,8009,BARCELONA,TRUE,63733072,Parades Taxi,Planol BCN >> Transports i serveis relacionats >> Transports adicionals >> Parades Taxi,651,6.5103E+13,430475.2466,4582565.779,41.39162067,2.168385542
?99400603073,"Parada de taxis * C Aribau, 242",23403,C Aribau,242,,26,Sant Gervasi - Galvany,5,Sarrià-Sant Gervasi,8006,BARCELONA,TRUE,63733072,Parades Taxi,Planol BCN >> Transports i serveis relacionats >> Transports adicionals >> Parades Taxi,651,6.5103E+13,428919.2647,4583034.44,41.39570571,2.149720733
?99400603075,"Parada de taxis * C Diputació, 258",100800,C Diputació,258,,7,la Dreta de l'Eixample,2,Eixample,8007,BARCELONA,TRUE,63733072,Parades Taxi,Planol BCN >> Transports i serveis relacionats >> Transports adicionals >> Parades Taxi,651,6.5103E+13,430397.2604,4582460.021,41.39066139,2.167464964
?99400603029,"Parada de taxis * Pg Joan Borbó Comte Barcelona, 76",224904,Pg Joan Borbó Comte Barcelona,76,,3,la Barceloneta,1,Ciutat Vella,8039,BARCELONA,TRUE,63733072,Parades Taxi,Planol BCN >> Transports i serveis relacionats >> Transports adicionals >> Parades Taxi,651,6.5103E+13,432181.8444,4580784.754,41.37572516,2.188996225
?99400603035,"Parada de taxis * C Pi i Margall, 41",144306,C Pi i Margall,41,,32,el Camp d'en Grassot i Gràcia Nova,6,Gràcia,8024,BARCELONA,TRUE,63733072,Parades Taxi,Planol BCN >> Transports i serveis relacionats >> Transports adicionals >> Parades Taxi,651,6.5103E+13,430093.854,4584443.447,41.4084991,2.163607199
?99400603040,"Parada de taxis * C Gran de Sant Andreu, 470",296202,C Gran de Sant Andreu,470,,60,Sant Andreu,9,Sant Andreu,8030,BARCELONA,TRUE,63733072,Parades Taxi,Planol BCN >> Transports i serveis relacionats >> Transports adicionals >> Parades Taxi,651,6.5103E+13,432177.908,4588133.986,41.4419171,2.188125483
?99400603041,"Parada de taxis * C Sancho de Ávila, 172",311703,C Sancho de Ávila,172,,66,el Parc i la Llacuna del Poblenou,10,Sant Martí,8018,BARCELONA,TRUE,63733072,Parades Taxi,Planol BCN >> Transports i serveis relacionats >> Transports adicionals >> Parades Taxi,651,6.5103E+13,432821.1146,4583832.775,41.40323152,2.196302175
?99400603042,"Parada de taxis * C Provença, 54",268003,C Provença,54,,9,la Nova Esquerra de l'Eixample,2,Eixample,8029,BARCELONA,TRUE,63733072,Parades Taxi,Planol BCN >> Transports i serveis relacionats >> Transports adicionals >> Parades Taxi,651,6.5103E+13,428596.9921,4581616.629,41.38290747,2.146033193
?99400603052,"Parada de taxis * Av Pearson, 1",248108,Av Pearson,1,,21,Pedralbes,4,Les Corts,8034,BARCELONA,TRUE,63733072,Parades Taxi,Planol BCN >> Transports i serveis relacionats >> Transports adicionals >> Parades Taxi,651,6.5103E+13,425727.7577,4582848.85,41.39374577,2.111570481
?99400603030,"Parada de taxis * C Aragó, 319",18505,C Aragó,319,,7,la Dreta de l'Eixample,2,Eixample,8009,BARCELONA,TRUE,63733072,Parades Taxi,Planol BCN >> Transports i serveis relacionats >> Transports adicionals >> Parades Taxi,651,6.5103E+13,430597.4794,4583056.789,41.39605359,2.1697912
?99400603032,"Parada de taxis * C Pamplona, 53",243206,C Pamplona,53,,66,el Parc i la Llacuna del Poblenou,10,Sant Martí,8005,BARCELONA,TRUE,63733072,Parades Taxi,Planol BCN >> Transports i serveis relacionats >> Transports adicionals >> Parades Taxi,651,6.5103E+13,432578.1791,4582924.701,41.39503241,2.193497205
?99400603036,"Parada de taxis * C Sant Antoni Maria Claret, 13",297001,C Sant Antoni Maria Claret,13,,32,el Camp d'en Grassot i Gràcia Nova,6,Gràcia,8037,BARCELONA,TRUE,63733072,Parades Taxi,Planol BCN >> Transports i serveis relacionats >> Transports adicionals >> Parades Taxi,651,6.5103E+13,430103.158,4583879.479,41.40342046,2.163783637
?99400603037,"Parada de taxis * Jard Reina Victòria, 9998",278459,Jard Reina Victòria,9998,,7,la Dreta de l'Eixample,2,Eixample,8007,BARCELONA,TRUE,63733072,Parades Taxi,Planol BCN >> Transports i serveis relacionats >> Transports adicionals >> Parades Taxi,651,6.5103E+13,430444.441,4582303.606,41.38925669,2.168047206
?99400603043,"Parada de taxis * C Ganduxer, 38",139805,C Ganduxer,38,,26,Sant Gervasi - Galvany,5,Sarrià-Sant Gervasi,8021,BARCELONA,TRUE,63733072,Parades Taxi,Planol BCN >> Transports i serveis relacionats >> Transports adicionals >> Parades Taxi,651,6.5103E+13,427913.5755,4582954.906,41.39489986,2.137701282
?99400603044,"Parada de taxis * C Jacinto Benavente, 2",164303,C Jacinto Benavente,2,,26,Sant Gervasi - Galvany,5,Sarrià-Sant Gervasi,8017,BARCELONA,TRUE,63733072,Parades Taxi,Planol BCN >> Transports i serveis relacionats >> Transports adicionals >> Parades Taxi,651,6.5103E+13,427699.0755,4582941.509,41.39475994,2.135137311
?99400603047,"Parada de taxis * Av Diagonal, 660",144601,Av Diagonal,660,,19,les Corts,4,Les Corts,8034,BARCELONA,TRUE,63733072,Parades Taxi,Planol BCN >> Transports i serveis relacionats >> Transports adicionals >> Parades Taxi,651,6.5103E+13,427307.8515,4582367.505,41.38955486,2.130526902
?99400603051,"Parada de taxis * Pl Virrei Amat, 9",366501,Pl Virrei Amat,9,,44,Vilapicina i la Torre Llobeta,8,Nou Barris,8016,BARCELONA,TRUE,63733072,Parades Taxi,Planol BCN >> Transports i serveis relacionats >> Transports adicionals >> Parades Taxi,651,6.5103E+13,431072.451,4586849.968,41.43025829,2.175040205
?99400603219,"Parada de taxis * C Cartagena, 349",68900,C Cartagena,349,,33,el Baix Guinardó,7,Horta-Guinardó,8025,BARCELONA,TRUE,63733072,Parades Taxi,Planol BCN >> Transports i serveis relacionats >> Transports adicionals >> Parades Taxi,651,6.5103E+13,430833.4267,4584903.485,41.41270649,2.172402348
?99400603220,"Parada de taxis * Pl Pius XII, 9999",244300,Pl Pius XII,9999,,20,la Maternitat i Sant Ramon,4,Les Corts,8028,BARCELONA,TRUE,63733072,Parades Taxi,Planol BCN >> Transports i serveis relacionats >> Transports adicionals >> Parades Taxi,651,6.5103E+13,426665.3268,4582048.954,41.38662749,2.122881068
?99400603223,"Parada de taxis * Moll Costa, 1",540813,Moll Costa,1,,12,la Marina del Prat Vermell,3,Sants-Montjuïc,8039,BARCELONA,TRUE,63733072,Parades Taxi,Planol BCN >> Transports i serveis relacionats >> Transports adicionals >> Parades Taxi,651,6.5103E+13,430950.6957,4579447.88,41.36357961,2.174427221
?99400603134,"Parada de taxis * C Dos de Maig, 314",105304,C Dos de Maig,314,,64,el Camp de l'Arpa del Clot,10,Sant Martí,8025,BARCELONA,TRUE,63733072,Parades Taxi,Planol BCN >> Transports i serveis relacionats >> Transports adicionals >> Parades Taxi,651,6.5103E+13,431185.3843,4584711.91,41.41101125,2.17663499
?99400603138,"Parada de taxis * C Esteve Terradas, 50",116901,C Esteve Terradas,50,,28,Vallcarca i els Penitents,6,Gràcia,8023,BARCELONA,TRUE,63733072,Parades Taxi,Planol BCN >> Transports i serveis relacionats >> Transports adicionals >> Parades Taxi,651,6.5103E+13,427998.9091,4585236.93,41.41546074,2.138450465
?99400603145,"Parada de taxis * C Llacuna, 22",183603,C Llacuna,22,,68,el Poblenou,10,Sant Martí,8005,BARCELONA,TRUE,63733072,Parades Taxi,Planol BCN >> Transports i serveis relacionats >> Transports adicionals >> Parades Taxi,651,6.5103E+13,433270.6953,4583374.324,41.39913981,2.201730787
?99400603150,"Parada de taxis * C Galileu, 2",138802,C Galileu,2,,18,Sants,3,Sants-Montjuïc,8028,BARCELONA,TRUE,63733072,Parades Taxi,Planol BCN >> Transports i serveis relacionats >> Transports adicionals >> Parades Taxi,651,6.5103E+13,427768.3533,4580877.2,41.37617375,2.13621203
?99400603152,"Parada de taxis * C Provença, 257",268003,C Provença,257,,7,la Dreta de l'Eixample,2,Eixample,8008,BARCELONA,TRUE,63733072,Parades Taxi,Planol BCN >> Transports i serveis relacionats >> Transports adicionals >> Parades Taxi,651,6.5103E+13,429874.3024,4582898.199,41.39456248,2.161159643
?99400603157,"Parada de taxis * Via Augusta, 286",28000,Via Augusta,286,,24,les Tres Torres,5,Sarrià-Sant Gervasi,8017,BARCELONA,TRUE,63733072,Parades Taxi,Planol BCN >> Transports i serveis relacionats >> Transports adicionals >> Parades Taxi,651,6.5103E+13,427236.715,4583287.295,41.39783259,2.129565619
?99400603162,"Parada de taxis * C Bruc, 52",49509,C Bruc,52,,7,la Dreta de l'Eixample,2,Eixample,8009,BARCELONA,TRUE,63733072,Parades Taxi,Planol BCN >> Transports i serveis relacionats >> Transports adicionals >> Parades Taxi,651,6.5103E+13,430758.8559,4582682.406,41.39269555,2.171764235
?99400603166,"Parada de taxis * C Pi i Margall, 85",144306,C Pi i Margall,85,,33,el Baix Guinardó,7,Horta-Guinardó,8024,BARCELONA,TRUE,63733072,Parades Taxi,Planol BCN >> Transports i serveis relacionats >> Transports adicionals >> Parades Taxi,651,6.5103E+13,430155.6663,4584695.755,41.41077693,2.164317556
?99400603168,"Parada de taxis * C Gran de Gràcia, 247",206403,C Gran de Gràcia,247,,31,la Vila de Gràcia,6,Gràcia,8012,BARCELONA,TRUE,63733072,Parades Taxi,Planol BCN >> Transports i serveis relacionats >> Transports adicionals >> Parades Taxi,651,6.5103E+13,428990.3207,4584159.54,41.40584534,2.150438658
?99400603171,"Parada de taxis * C Mallorca, 24",191204,C Mallorca,24,,15,Hostafrancs,3,Sants-Montjuïc,8014,BARCELONA,TRUE,63733072,Parades Taxi,Planol BCN >> Transports i serveis relacionats >> Transports adicionals >> Parades Taxi,651,6.5103E+13,428364.8144,4581228.884,41.37939455,2.143302524
?99400603180,"Parada de taxis * Trav Gràcia, 18",344101,Trav Gràcia,18,,26,Sant Gervasi - Galvany,5,Sarrià-Sant Gervasi,8021,BARCELONA,TRUE,63733072,Parades Taxi,Planol BCN >> Transports i serveis relacionats >> Transports adicionals >> Parades Taxi,651,6.5103E+13,428652.0263,4582863.872,41.39414581,2.14654442
?99400603188,"Parada de taxis * Via Laietana, 36",177101,Via Laietana,36,,4,"Sant Pere, Santa Caterina i la Ribera",1,Ciutat Vella,8003,BARCELONA,TRUE,63733072,Parades Taxi,Planol BCN >> Transports i serveis relacionats >> Transports adicionals >> Parades Taxi,651,6.5103E+13,431165.1481,4581905.068,41.38572918,2.176711997
?99400603190,"Parada de taxis * Av Rio de Janeiro, 83",282650,Av Rio de Janeiro,83,,52,la Prosperitat,8,Nou Barris,8016,BARCELONA,TRUE,63733072,Parades Taxi,Planol BCN >> Transports i serveis relacionats >> Transports adicionals >> Parades Taxi,651,6.5103E+13,431671.4509,4587893.558,41.43970872,2.182090645
?99400603237,"Parada de taxis * C Sant Antoni Maria Claret, 204",297001,C Sant Antoni Maria Claret,204,,6,la Sagrada Família,2,Eixample,8025,BARCELONA,TRUE,63733072,Parades Taxi,Planol BCN >> Transports i serveis relacionats >> Transports adicionals >> Parades Taxi,651,6.5103E+13,430933.6568,4584669.082,41.41060392,2.173628266
?99400603239,"Parada de taxis * C Ganduxer, 14",139805,C Ganduxer,14,,26,Sant Gervasi - Galvany,5,Sarrià-Sant Gervasi,8021,BARCELONA,TRUE,63733072,Parades Taxi,Planol BCN >> Transports i serveis relacionats >> Transports adicionals >> Parades Taxi,651,6.5103E+13,428010.2426,4582706.541,41.3926716,2.138887013
?99400603242,"Parada de taxis * C Viladomat, 297",361406,C Viladomat,297,,9,la Nova Esquerra de l'Eixample,2,Eixample,8029,BARCELONA,TRUE,63733072,Parades Taxi,Planol BCN >> Transports i serveis relacionats >> Transports adicionals >> Parades Taxi,651,6.5103E+13,428545.1275,4582266.995,41.38876047,2.145336263
?99400603244,"Parada de taxis * Pl Doctor Modrego, 9999",102907,Pl Doctor Modrego,9999,,62,el Congrés i els Indians,9,Sant Andreu,8027,BARCELONA,TRUE,63733072,Parades Taxi,Planol BCN >> Transports i serveis relacionats >> Transports adicionals >> Parades Taxi,651,6.5103E+13,431525.1877,4586311.192,41.42544446,2.180519277
?99400603252,"Parada de taxis * C Capità Arenas, 59",62507,C Capità Arenas,59,,23,Sarrià,5,Sarrià-Sant Gervasi,8034,BARCELONA,TRUE,63733072,Parades Taxi,Planol BCN >> Transports i serveis relacionats >> Transports adicionals >> Parades Taxi,651,6.5103E+13,426818.6601,4582839.174,41.39375862,2.124619332
?99400603253,"Parada de taxis * Pg Andreu Nin, 22",700021,Pg Andreu Nin,22,,45,Porta,8,Nou Barris,8016,BARCELONA,TRUE,63733072,Parades Taxi,Planol BCN >> Transports i serveis relacionats >> Transports adicionals >> Parades Taxi,651,6.5103E+13,431651.3632,4587426.078,41.43549658,2.181903091
?99400602994,"Parada de taxis * C Equador, 8",107004,C Equador,8,,18,Sants,3,Sants-Montjuïc,8029,BARCELONA,TRUE,63733072,Parades Taxi,Planol BCN >> Transports i serveis relacionats >> Transports adicionals >> Parades Taxi,651,6.5103E+13,428241.9045,4581828.222,41.38478161,2.141761808
?99400602995,"Parada de taxis * Viad Vallcarca, 15",358300,Viad Vallcarca,15,,28,Vallcarca i els Penitents,6,Gràcia,8023,BARCELONA,TRUE,63733072,Parades Taxi,Planol BCN >> Transports i serveis relacionats >> Transports adicionals >> Parades Taxi,651,6.5103E+13,428501.2233,4584994.249,41.41331987,2.144489084
?99400602996,"Parada de taxis * Pl Espanya, 5",114000,Pl Espanya,5,,15,Hostafrancs,3,Sants-Montjuïc,8014,BARCELONA,TRUE,63733072,Parades Taxi,Planol BCN >> Transports i serveis relacionats >> Transports adicionals >> Parades Taxi,651,6.5103E+13,428786.6544,4580724.596,41.37489005,2.148406095
?99400603001,"Parada de taxis * C Pallars, 205",242906,C Pallars,205,,68,el Poblenou,10,Sant Martí,8005,BARCELONA,TRUE,63733072,Parades Taxi,Planol BCN >> Transports i serveis relacionats >> Transports adicionals >> Parades Taxi,651,6.5103E+13,432958.4493,4583623.6,41.401359,2.197968197
?99400603264,"Parada de taxis * Moll Barcelona, 1",540416,Moll Barcelona,1,,1,el Raval,1,Ciutat Vella,8039,BARCELONA,TRUE,63733072,Parades Taxi,Planol BCN >> Transports i serveis relacionats >> Transports adicionals >> Parades Taxi,651,6.5103E+13,431383.2863,4580432.178,41.37248191,2.179487505
?99400603265,"Parada de taxis * C Castillejos, 353",73900,C Castillejos,353,,33,el Baix Guinardó,7,Horta-Guinardó,8025,BARCELONA,TRUE,63733072,Parades Taxi,Planol BCN >> Transports i serveis relacionats >> Transports adicionals >> Parades Taxi,651,6.5103E+13,430874.2623,4584662.728,41.41054158,2.172918415
?99400603266,"Parada de taxis * Av Marquès de l'Argentera, 6",198203,Av Marquès de l'Argentera,6,,4,"Sant Pere, Santa Caterina i la Ribera",1,Ciutat Vella,8003,BARCELONA,TRUE,63733072,Parades Taxi,Planol BCN >> Transports i serveis relacionats >> Transports adicionals >> Parades Taxi,651,6.5103E+13,431875.1782,4581773.639,41.38460588,2.185218146
?99400603273,"Parada de taxis * C Joan Güell, 236",172403,C Joan Güell,236,,19,les Corts,4,Les Corts,8028,BARCELONA,TRUE,63733072,Parades Taxi,Planol BCN >> Transports i serveis relacionats >> Transports adicionals >> Parades Taxi,651,6.5103E+13,427155.911,4582157.981,41.38765402,2.128734934
?99400603274,"Parada de taxis * C Alí Bei, 73",9209,C Alí Bei,73,,5,el Fort Pienc,2,Eixample,8013,BARCELONA,TRUE,63733072,Parades Taxi,Planol BCN >> Transports i serveis relacionats >> Transports adicionals >> Parades Taxi,651,6.5103E+13,431632.0323,4582876.475,41.39451818,2.182185898
?99400603086,"Parada de taxis * Av Meridiana, 424",209900,Av Meridiana,424,,60,Sant Andreu,9,Sant Andreu,8030,BARCELONA,TRUE,63733072,Parades Taxi,Planol BCN >> Transports i serveis relacionats >> Transports adicionals >> Parades Taxi,651,6.5103E+13,431784.772,4587158.581,41.43309868,2.183529959
?99400603087,"Parada de taxis * C Mallorca, 663",191204,C Mallorca,663,,63,Navas,9,Sant Andreu,8027,BARCELONA,TRUE,63733072,Parades Taxi,Planol BCN >> Transports i serveis relacionats >> Transports adicionals >> Parades Taxi,651,6.5103E+13,432298.9334,4585097.65,41.41458006,2.189914123
?99400603091,"Parada de taxis * Rbla Guipúscoa, 141",153205,Rbla Guipúscoa,141,,73,la Verneda i la Pau,10,Sant Martí,8020,BARCELONA,TRUE,63733072,Parades Taxi,Planol BCN >> Transports i serveis relacionats >> Transports adicionals >> Parades Taxi,651,6.5103E+13,433582.0808,4585978.303,41.42261891,2.205169653
?99400603092,"Parada de taxis * Av Roma, 20",287201,Av Roma,20,,9,la Nova Esquerra de l'Eixample,2,Eixample,8015,BARCELONA,TRUE,63733072,Parades Taxi,Planol BCN >> Transports i serveis relacionats >> Transports adicionals >> Parades Taxi,651,6.5103E+13,428513.814,4581417.499,41.38110659,2.145061996
?99400603282,"Parada de taxis * Moll Adossat, 5",540074,Moll Adossat,5,,12,la Marina del Prat Vermell,3,Sants-Montjuïc,8039,BARCELONA,TRUE,63733072,Parades Taxi,Planol BCN >> Transports i serveis relacionats >> Transports adicionals >> Parades Taxi,651,6.5103E+13,431438.162,4579121.165,41.36067864,2.180291859
?99400603256,"Parada de taxis * C Lope de Vega, 141",180401,C Lope de Vega,141,,68,el Poblenou,10,Sant Martí,8005,BARCELONA,TRUE,63733072,Parades Taxi,Planol BCN >> Transports i serveis relacionats >> Transports adicionals >> Parades Taxi,651,6.5103E+13,433213.4897,4584173.457,41.40633264,2.200958343
?99400603262,"Parada de taxis * C Villarroel, 195",363809,C Villarroel,195,,8,l'Antiga Esquerra de l'Eixample,2,Eixample,8036,BARCELONA,TRUE,63733072,Parades Taxi,Planol BCN >> Transports i serveis relacionats >> Transports adicionals >> Parades Taxi,651,6.5103E+13,429032.1417,4582345.401,41.38950976,2.151151584
?99400603263,"Parada de taxis * Av Vallcarca, 151",158107,Av Vallcarca,151,,28,Vallcarca i els Penitents,6,Gràcia,8023,BARCELONA,TRUE,63733072,Parades Taxi,Planol BCN >> Transports i serveis relacionats >> Transports adicionals >> Parades Taxi,651,6.5103E+13,428375.0395,4585083.969,41.4141167,2.142968786
?99400603268,"Parada de taxis * C Numància, 177",231502,C Numància,177,,19,les Corts,4,Les Corts,8034,BARCELONA,TRUE,63733072,Parades Taxi,Planol BCN >> Transports i serveis relacionats >> Transports adicionals >> Parades Taxi,651,6.5103E+13,427419.2714,4582443.134,41.39024608,2.13185039
?99400603270,"Parada de taxis * C Almogàvers, 125",11200,C Almogàvers,125,,66,el Parc i la Llacuna del Poblenou,10,Sant Martí,8018,BARCELONA,TRUE,63733072,Parades Taxi,Planol BCN >> Transports i serveis relacionats >> Transports adicionals >> Parades Taxi,651,6.5103E+13,432356.6342,4583227.245,41.39773874,2.19081353
?99400603278,"Parada de taxis * Av Joan XXIII, 26",244209,Av Joan XXIII,26,,20,la Maternitat i Sant Ramon,4,Les Corts,8028,BARCELONA,TRUE,63733072,Parades Taxi,Planol BCN >> Transports i serveis relacionats >> Transports adicionals >> Parades Taxi,651,6.5103E+13,426646.271,4581990.396,41.38609834,2.122660267
?99400603280,"Parada de taxis * Moll Adossat, 4",540074,Moll Adossat,4,,12,la Marina del Prat Vermell,3,Sants-Montjuïc,8039,BARCELONA,TRUE,63733072,Parades Taxi,Planol BCN >> Transports i serveis relacionats >> Transports adicionals >> Parades Taxi,651,6.5103E+13,431498.5764,4579236.389,41.36172157,2.181001076
?99400603122,"Parada de taxis * Av Marquès de l'Argentera, 6",198203,Av Marquès de l'Argentera,6,,4,"Sant Pere, Santa Caterina i la Ribera",1,Ciutat Vella,8003,BARCELONA,TRUE,63733072,Parades Taxi,Planol BCN >> Transports i serveis relacionats >> Transports adicionals >> Parades Taxi,651,6.5103E+13,431876.9582,4581776.696,41.38463357,2.185239089
?99400603125,"Parada de taxis * Trav Gràcia, 212",344101,Trav Gràcia,212,,31,la Vila de Gràcia,6,Gràcia,8012,BARCELONA,TRUE,63733072,Parades Taxi,Planol BCN >> Transports i serveis relacionats >> Transports adicionals >> Parades Taxi,651,6.5103E+13,429920.6238,4583898.322,41.40357428,2.161597917
?99400603127,"Parada de taxis * C Mirador del Palau Nacional, 2",700068,C Mirador del Palau Nacional,2,,11,el Poble-sec,3,Sants-Montjuïc,8038,BARCELONA,TRUE,63733072,Parades Taxi,Planol BCN >> Transports i serveis relacionats >> Transports adicionals >> Parades Taxi,651,6.5103E+13,429075.2388,4580015.553,41.36852942,2.151939669
?99400603285,"Parada de taxis * C Padilla, 153",238400,C Padilla,153,,5,el Fort Pienc,2,Eixample,8013,BARCELONA,TRUE,63733072,Parades Taxi,Planol BCN >> Transports i serveis relacionats >> Transports adicionals >> Parades Taxi,651,6.5103E+13,431983.6618,4583341.828,41.39873929,2.186339392
?99400603286,"Parada de taxis * C Marina, 2",197302,C Marina,2,,67,la Vila Olímpica del Poblenou,10,Sant Martí,8005,BARCELONA,TRUE,63733072,Parades Taxi,Planol BCN >> Transports i serveis relacionats >> Transports adicionals >> Parades Taxi,651,6.5103E+13,432953.7417,4581978.938,41.38654557,2.198093966
?99400603133,"Parada de taxis * C Espronceda, 4",115603,C Espronceda,4,,69,Diagonal Mar i el Front Marítim del Poblenou,10,Sant Martí,8005,BARCELONA,TRUE,63733072,Parades Taxi,Planol BCN >> Transports i serveis relacionats >> Transports adicionals >> Parades Taxi,651,6.5103E+13,433973.8654,4583602.217,41.40125043,2.210117044
?99400603142,"Parada de taxis * C Rosselló, 271",289105,C Rosselló,271,,7,la Dreta de l'Eixample,2,Eixample,8008,BARCELONA,TRUE,63733072,Parades Taxi,Planol BCN >> Transports i serveis relacionats >> Transports adicionals >> Parades Taxi,651,6.5103E+13,429885.6903,4583097.548,41.39635894,2.161272768
?99400603146,"Parada de taxis * Trav Corts, 154",343903,Trav Corts,154,,20,la Maternitat i Sant Ramon,4,Les Corts,8028,BARCELONA,TRUE,63733072,Parades Taxi,Planol BCN >> Transports i serveis relacionats >> Transports adicionals >> Parades Taxi,651,6.5103E+13,427019.3465,4581485.59,41.38158569,2.127182702
?99400603235,"Parada de taxis * C Balmes, 449",32700,C Balmes,449,,25,Sant Gervasi - la Bonanova,5,Sarrià-Sant Gervasi,8022,BARCELONA,TRUE,63733072,Parades Taxi,Planol BCN >> Transports i serveis relacionats >> Transports adicionals >> Parades Taxi,651,6.5103E+13,427845.5818,4584621.189,41.40990128,2.136689415
?99400603240,"Parada de taxis * C Rambla, 44",34308,C Rambla,44,,2,el Barri Gòtic,1,Ciutat Vella,8002,BARCELONA,TRUE,63733072,Parades Taxi,Planol BCN >> Transports i serveis relacionats >> Transports adicionals >> Parades Taxi,651,6.5103E+13,431000.9938,4581223.389,41.37957544,2.174826475
?99400603243,"Parada de taxis * C Diputació, 255",100800,C Diputació,255,,7,la Dreta de l'Eixample,2,Eixample,8007,BARCELONA,TRUE,63733072,Parades Taxi,Planol BCN >> Transports i serveis relacionats >> Transports adicionals >> Parades Taxi,651,6.5103E+13,430274.9216,4582339.502,41.38956532,2.166015662
?99400603255,"Parada de taxis * C Marina, 16",197302,C Marina,16,,67,la Vila Olímpica del Poblenou,10,Sant Martí,8005,BARCELONA,TRUE,63733072,Parades Taxi,Planol BCN >> Transports i serveis relacionats >> Transports adicionals >> Parades Taxi,651,6.5103E+13,432905.7411,4582027.496,41.38697892,2.197514533
?99400603207,"Parada de taxis * Pg Andreu Nin, 31",700021,Pg Andreu Nin,31,,45,Porta,8,Nou Barris,8016,BARCELONA,TRUE,63733072,Parades Taxi,Planol BCN >> Transports i serveis relacionats >> Transports adicionals >> Parades Taxi,651,6.5103E+13,431646.4043,4587407.824,41.43533176,2.181845805
?99400603209,"Parada de taxis * C Ciutat d'Asunción, 35",80101,C Ciutat d'Asunción,35,,59,el Bon Pastor,9,Sant Andreu,8030,BARCELONA,TRUE,63733072,Parades Taxi,Planol BCN >> Transports i serveis relacionats >> Transports adicionals >> Parades Taxi,651,6.5103E+13,433183.6223,4587872.099,41.4396427,2.200192364
?99400603210,"Parada de taxis * Av Estadi, 47",116402,Av Estadi,47,,11,el Poble-sec,3,Sants-Montjuïc,8038,BARCELONA,TRUE,63733072,Parades Taxi,Planol BCN >> Transports i serveis relacionats >> Transports adicionals >> Parades Taxi,651,6.5103E+13,429188.8757,4579756.491,41.36620614,2.153328556
?99400603213,"Parada de taxis * C Casanova, 158",70607,C Casanova,158,,8,l'Antiga Esquerra de l'Eixample,2,Eixample,8036,BARCELONA,TRUE,63733072,Parades Taxi,Planol BCN >> Transports i serveis relacionats >> Transports adicionals >> Parades Taxi,651,6.5103E+13,429212.715,4582383.76,41.38987116,2.153306716
?99400603218,"Parada de taxis * C Enric Granados, 76",110304,C Enric Granados,76,,8,l'Antiga Esquerra de l'Eixample,2,Eixample,8008,BARCELONA,TRUE,63733072,Parades Taxi,Planol BCN >> Transports i serveis relacionats >> Transports adicionals >> Parades Taxi,651,6.5103E+13,429457.7125,4582687.818,41.39263122,2.156201436
?99400603221,"Parada de taxis * C Balmes, 289",32700,C Balmes,289,,26,Sant Gervasi - Galvany,5,Sarrià-Sant Gervasi,8006,BARCELONA,TRUE,63733072,Parades Taxi,Planol BCN >> Transports i serveis relacionats >> Transports adicionals >> Parades Taxi,651,6.5103E+13,428680.0349,4583686.957,41.4015615,2.146782468
?99400603010,"Parada de taxis * Av Estadi, 75",116402,Av Estadi,75,,11,el Poble-sec,3,Sants-Montjuïc,8038,BARCELONA,TRUE,63733072,Parades Taxi,Planol BCN >> Transports i serveis relacionats >> Transports adicionals >> Parades Taxi,651,6.5103E+13,429738.6354,4579966.672,41.36814735,2.159876865
?99400603014,"Parada de taxis * C Àlaba, 75",4908,C Àlaba,75,,66,el Parc i la Llacuna del Poblenou,10,Sant Martí,8018,BARCELONA,TRUE,63733072,Parades Taxi,Planol BCN >> Transports i serveis relacionats >> Transports adicionals >> Parades Taxi,651,6.5103E+13,432515.9657,4583168.933,41.39722692,2.192725857
?99400603019,"Parada de taxis * C Tànger, 89",330107,C Tànger,89,,66,el Parc i la Llacuna del Poblenou,10,Sant Martí,8018,BARCELONA,TRUE,63733072,Parades Taxi,Planol BCN >> Transports i serveis relacionats >> Transports adicionals >> Parades Taxi,651,6.5103E+13,432503.0727,4583749.359,41.40245357,2.192506929
?99400603021,"Parada de taxis * C Muntaner, 212",223606,C Muntaner,212,,8,l'Antiga Esquerra de l'Eixample,2,Eixample,8036,BARCELONA,TRUE,63733072,Parades Taxi,Planol BCN >> Transports i serveis relacionats >> Transports adicionals >> Parades Taxi,651,6.5103E+13,428980.9501,4582787.664,41.39348854,2.150487487
?99400603023,"Parada de taxis * C Còrsega, 376",90502,C Còrsega,376,,7,la Dreta de l'Eixample,2,Eixample,8037,BARCELONA,TRUE,63733072,Parades Taxi,Planol BCN >> Transports i serveis relacionats >> Transports adicionals >> Parades Taxi,651,6.5103E+13,430025.9898,4583400.663,41.39910122,2.162915869
?99400603027,"Parada de taxis * C Bruc, 40",49509,C Bruc,40,,7,la Dreta de l'Eixample,2,Eixample,8010,BARCELONA,TRUE,63733072,Parades Taxi,Planol BCN >> Transports i serveis relacionats >> Transports adicionals >> Parades Taxi,651,6.5103E+13,430890.8596,4582555.657,41.39156532,2.173357518
?99400603182,"Parada de taxis * Pl República, 10",186601,Pl República,10,,48,la Guineueta,8,Nou Barris,8042,BARCELONA,TRUE,63733072,Parades Taxi,Planol BCN >> Transports i serveis relacionats >> Transports adicionals >> Parades Taxi,651,6.5103E+13,431033.1762,4587779.988,41.43863127,2.174464062
?99400603185,"Parada de taxis * Rbla Catalunya, 60",74506,Rbla Catalunya,60,,7,la Dreta de l'Eixample,2,Eixample,8007,BARCELONA,TRUE,63733072,Parades Taxi,Planol BCN >> Transports i serveis relacionats >> Transports adicionals >> Parades Taxi,651,6.5103E+13,430061.8727,4582536.284,41.39131918,2.163444914
?99400603200,"Parada de taxis * Av Joan XXIII, 2",244209,Av Joan XXIII,2,,20,la Maternitat i Sant Ramon,4,Les Corts,8028,BARCELONA,TRUE,63733072,Parades Taxi,Planol BCN >> Transports i serveis relacionats >> Transports adicionals >> Parades Taxi,651,6.5103E+13,426519.8463,4581473.776,41.38143382,2.121210999
?99400603203,"Parada de taxis * C València, 269",350308,C València,269,,7,la Dreta de l'Eixample,2,Eixample,8009,BARCELONA,TRUE,63733072,Parades Taxi,Planol BCN >> Transports i serveis relacionats >> Transports adicionals >> Parades Taxi,651,6.5103E+13,430195.5303,4582849.54,41.39415218,2.165007373
?99400603205,"Parada de taxis * Av Diagonal, 593",144601,Av Diagonal,593,,19,les Corts,4,Les Corts,8014,BARCELONA,TRUE,63733072,Parades Taxi,Planol BCN >> Transports i serveis relacionats >> Transports adicionals >> Parades Taxi,651,6.5103E+13,427348.8761,4582281.041,41.38877982,2.131027915
?99400603206,"Parada de taxis * C Sant Quintí, 122",310008,C Sant Quintí,122,,35,el Guinardó,7,Horta-Guinardó,8041,BARCELONA,TRUE,63733072,Parades Taxi,Planol BCN >> Transports i serveis relacionats >> Transports adicionals >> Parades Taxi,651,6.5103E+13,431038.6396,4585252.68,41.4158692,2.174817729
?99400603208,"Parada de taxis * C Tajo, 51",329505,C Tajo,51,,43,Horta,7,Horta-Guinardó,8032,BARCELONA,TRUE,63733072,Parades Taxi,Planol BCN >> Transports i serveis relacionats >> Transports adicionals >> Parades Taxi,651,6.5103E+13,429924.3591,4586777.873,41.42950962,2.16130902
?99400603211,"Parada de taxis * C Sabino Arana, 21",285002,C Sabino Arana,21,,20,la Maternitat i Sant Ramon,4,Les Corts,8028,BARCELONA,TRUE,63733072,Parades Taxi,Planol BCN >> Transports i serveis relacionats >> Transports adicionals >> Parades Taxi,651,6.5103E+13,426840.8091,4581902.051,41.38532037,2.124997427
?99400603216,"Parada de taxis * Pl Francesc Macià, 8",55807,Pl Francesc Macià,8,,8,l'Antiga Esquerra de l'Eixample,2,Eixample,8029,BARCELONA,TRUE,63733072,Parades Taxi,Planol BCN >> Transports i serveis relacionats >> Transports adicionals >> Parades Taxi,651,6.5103E+13,428498.3628,4582661.593,41.39231031,2.144730395
?99400603222,"Parada de taxis * Pg Joan Borbó Comte Barcelona, 11",224904,Pg Joan Borbó Comte Barcelona,11,,3,la Barceloneta,1,Ciutat Vella,8003,BARCELONA,TRUE,63733072,Parades Taxi,Planol BCN >> Transports i serveis relacionats >> Transports adicionals >> Parades Taxi,651,6.5103E+13,432037.1817,4581320.176,41.38053536,2.187206403
?99400603227,"Parada de taxis * C Manso, 15",192502,C Manso,15,,10,Sant Antoni,2,Eixample,8015,BARCELONA,TRUE,63733072,Parades Taxi,Planol BCN >> Transports i serveis relacionats >> Transports adicionals >> Parades Taxi,651,6.5103E+13,429722.0343,4580848.817,41.3760911,2.159576128
?99400603131,"Parada de taxis * C Doctor Roux, 75",103502,C Doctor Roux,75,,24,les Tres Torres,5,Sarrià-Sant Gervasi,8017,BARCELONA,TRUE,63733072,Parades Taxi,Planol BCN >> Transports i serveis relacionats >> Transports adicionals >> Parades Taxi,651,6.5103E+13,427252.8588,4583329.175,41.39821125,2.129753687
?99400603136,"Parada de taxis * Av Diagonal, 634",144601,Av Diagonal,634,,19,les Corts,4,Les Corts,8017,BARCELONA,TRUE,63733072,Parades Taxi,Planol BCN >> Transports i serveis relacionats >> Transports adicionals >> Parades Taxi,651,6.5103E+13,427736.2753,4582507.246,41.39085206,2.13563406
?99400603141,"Parada de taxis * C Còrsega, 306",90502,C Còrsega,306,,7,la Dreta de l'Eixample,2,Eixample,8008,BARCELONA,TRUE,63733072,Parades Taxi,Planol BCN >> Transports i serveis relacionats >> Transports adicionals >> Parades Taxi,651,6.5103E+13,429675.4823,4583079.96,41.39618218,2.158760503
?99400603148,"Parada de taxis * C Marina, 13",197302,C Marina,13,,3,la Barceloneta,1,Ciutat Vella,8005,BARCELONA,TRUE,63733072,Parades Taxi,Planol BCN >> Transports i serveis relacionats >> Transports adicionals >> Parades Taxi,651,6.5103E+13,432891.5333,4581997.634,41.38670877,2.197347922
?99400603149,"Parada de taxis * C Numància, 72",231502,C Numància,72,,19,les Corts,4,Les Corts,8029,BARCELONA,TRUE,63733072,Parades Taxi,Planol BCN >> Transports i serveis relacionats >> Transports adicionals >> Parades Taxi,651,6.5103E+13,427899.1268,4581811.287,41.38459844,2.137664593
?99400603110,"Parada de taxis * C Còrsega, 306",90502,C Còrsega,306,,7,la Dreta de l'Eixample,2,Eixample,8008,BARCELONA,TRUE,63733072,Parades Taxi,Planol BCN >> Transports i serveis relacionats >> Transports adicionals >> Parades Taxi,651,6.5103E+13,429669.1834,4583077.922,41.39616328,2.158685398
?99400603158,"Parada de taxis * Pl Gaudí, 8",142355,Pl Gaudí,8,,6,la Sagrada Família,2,Eixample,8013,BARCELONA,TRUE,63733072,Parades Taxi,Planol BCN >> Transports i serveis relacionats >> Transports adicionals >> Parades Taxi,651,6.5103E+13,431089.0724,4583911.769,41.4037964,2.175573845
?99400603113,"Parada de taxis * C Cabanes, 1",52900,C Cabanes,1,,11,el Poble-sec,3,Sants-Montjuïc,8004,BARCELONA,TRUE,63733072,Parades Taxi,Planol BCN >> Transports i serveis relacionats >> Transports adicionals >> Parades Taxi,651,6.5103E+13,430656.7163,4580678.916,41.37464193,2.170771892
?99400603175,"Parada de taxis * C Sant Antoni Maria Claret, 356",297001,C Sant Antoni Maria Claret,356,,64,el Camp de l'Arpa del Clot,10,Sant Martí,8041,BARCELONA,TRUE,63733072,Parades Taxi,Planol BCN >> Transports i serveis relacionats >> Transports adicionals >> Parades Taxi,651,6.5103E+13,431546.7877,4585268.816,41.41605798,2.180895735
?99400603114,"Parada de taxis * C Pablo Iglesias, 122",351708,C Pablo Iglesias,122,,52,la Prosperitat,8,Nou Barris,8016,BARCELONA,TRUE,63733072,Parades Taxi,Planol BCN >> Transports i serveis relacionats >> Transports adicionals >> Parades Taxi,651,6.5103E+13,431772.7928,4588653.82,41.44656473,2.183217749
?99400603177,"Parada de taxis * Pg Marítim de la Barceloneta, 23",197903,Passeig Marítim de la Barceloneta - Oriol Bohigas,23,,3,la Barceloneta,1,Ciutat Vella,8003,Barcelona,TRUE,63733072,Parades Taxi,Planol BCN >> Transports i serveis relacionats >> Transports adicionals >> Parades Taxi,651,6.5103E+13,432672.0935,4581635.386,41.38342776,2.194763812
?99400603117,"Parada de taxis * C Muntaner, 149",223606,C Muntaner,149,,8,l'Antiga Esquerra de l'Eixample,2,Eixample,8036,BARCELONA,TRUE,63733072,Parades Taxi,Planol BCN >> Transports i serveis relacionats >> Transports adicionals >> Parades Taxi,651,6.5103E+13,429247.7746,4582484.675,41.39078315,2.153714236
?99400603118,"Parada de taxis * C Felip II, 71",121402,C Felip II,71,,63,Navas,9,Sant Andreu,8027,BARCELONA,TRUE,63733072,Parades Taxi,Planol BCN >> Transports i serveis relacionats >> Transports adicionals >> Parades Taxi,651,6.5103E+13,432102.5512,4585686.709,41.41986895,2.187498392
?99400603119,"Parada de taxis * C Lope de Vega, 2",180401,C Lope de Vega,2,,69,Diagonal Mar i el Front Marítim del Poblenou,10,Sant Martí,8005,BARCELONA,TRUE,63733072,Parades Taxi,Planol BCN >> Transports i serveis relacionats >> Transports adicionals >> Parades Taxi,651,6.5103E+13,433879.4784,4583498.795,41.40031118,2.208999273
?99400603053,"Parada de taxis * Rbla Raval, 17",701367,Rbla Raval,17,,1,el Raval,1,Ciutat Vella,8001,BARCELONA,TRUE,63733072,Parades Taxi,Planol BCN >> Transports i serveis relacionats >> Transports adicionals >> Parades Taxi,651,6.5103E+13,430556.1132,4581146.57,41.37884528,2.169515391
?99400603061,"Parada de taxis * C Provençals, 2",267907,C Provençals,2,,69,Diagonal Mar i el Front Marítim del Poblenou,10,Sant Martí,8019,BARCELONA,TRUE,63733072,Parades Taxi,Planol BCN >> Transports i serveis relacionats >> Transports adicionals >> Parades Taxi,651,6.5103E+13,434267.7165,4583875.296,41.40373407,2.213602468
?99400603062,"Parada de taxis * C Llull, 271",186703,C Llull,271,,68,el Poblenou,10,Sant Martí,8005,BARCELONA,TRUE,63733072,Parades Taxi,Planol BCN >> Transports i serveis relacionats >> Transports adicionals >> Parades Taxi,651,6.5103E+13,433729.6537,4584017.764,41.40497307,2.207150268
?99400603064,"Parada de taxis * Av Drassanes, 27",140203,Av Drassanes,27,,1,el Raval,1,Ciutat Vella,8001,BARCELONA,TRUE,63733072,Parades Taxi,Planol BCN >> Transports i serveis relacionats >> Transports adicionals >> Parades Taxi,651,6.5103E+13,430784.95,4580916.435,41.37679224,2.172278074
?99400603065,"Parada de taxis * C Pinzón, 1",257506,C Pinzón,1,,3,la Barceloneta,1,Ciutat Vella,8003,BARCELONA,TRUE,63733072,Parades Taxi,Planol BCN >> Transports i serveis relacionats >> Transports adicionals >> Parades Taxi,651,6.5103E+13,432249.8266,4581632.482,41.38336615,2.189714343
?99400603066,"Parada de taxis * C Doctor Trueta, 164",367504,C Doctor Trueta,164,,68,el Poblenou,10,Sant Martí,8005,BARCELONA,TRUE,63733072,Parades Taxi,Planol BCN >> Transports i serveis relacionats >> Transports adicionals >> Parades Taxi,651,6.5103E+13,433166.4374,4583059.701,41.39629743,2.200518416
?99400603070,"Parada de taxis * C Consell de Cent, 457",89004,C Consell de Cent,457,,5,el Fort Pienc,2,Eixample,8013,BARCELONA,TRUE,63733072,Parades Taxi,Planol BCN >> Transports i serveis relacionats >> Transports adicionals >> Parades Taxi,651,6.5103E+13,431073.2517,4583330.89,41.39856325,2.175450728
?99400603085,"Parada de taxis * Av Rio de Janeiro, 49",282650,Av Rio de Janeiro,49,,45,Porta,8,Nou Barris,8016,BARCELONA,TRUE,63733072,Parades Taxi,Planol BCN >> Transports i serveis relacionats >> Transports adicionals >> Parades Taxi,651,6.5103E+13,431487.4788,4587395.757,41.43520953,2.179945111
?99400603088,"Parada de taxis * C Joan Miró, 21",700661,C Joan Miró,21,,67,la Vila Olímpica del Poblenou,10,Sant Martí,8005,BARCELONA,TRUE,63733072,Parades Taxi,Planol BCN >> Transports i serveis relacionats >> Transports adicionals >> Parades Taxi,651,6.5103E+13,432617.4278,4582481.292,41.39104204,2.194015989
?99400603089,"Parada de taxis * G.V. Corts Catalanes, 724",169409,G.V. Corts Catalanes,724,,5,el Fort Pienc,2,Eixample,8013,BARCELONA,TRUE,63733072,Parades Taxi,Planol BCN >> Transports i serveis relacionats >> Transports adicionals >> Parades Taxi,651,6.5103E+13,431305.7545,4583115.957,41.39664731,2.178256196
?99400603096,"Parada de taxis * C Milanesat, 26",211505,C Milanesat,26,,24,les Tres Torres,5,Sarrià-Sant Gervasi,8017,BARCELONA,TRUE,63733072,Parades Taxi,Planol BCN >> Transports i serveis relacionats >> Transports adicionals >> Parades Taxi,651,6.5103E+13,427297.9984,4583317.167,41.39810718,2.130295056
?99400603100,"Parada de taxis * C Escorial, 130",112004,C Escorial,130,,32,el Camp d'en Grassot i Gràcia Nova,6,Gràcia,8024,BARCELONA,TRUE,63733072,Parades Taxi,Planol BCN >> Transports i serveis relacionats >> Transports adicionals >> Parades Taxi,651,6.5103E+13,429740.6284,4584550.676,41.40943408,2.159369013
?99400603082,"Parada de taxis * C Muntaner, 36",223606,C Muntaner,36,,8,l'Antiga Esquerra de l'Eixample,2,Eixample,8011,BARCELONA,TRUE,63733072,Parades Taxi,Planol BCN >> Transports i serveis relacionats >> Transports adicionals >> Parades Taxi,651,6.5103E+13,429830.532,4581927.051,41.38581187,2.160748621
?99400603090,"Parada de taxis * Pl Catalunya, 23",74404,Pl Catalunya,23,,2,el Barri Gòtic,1,Ciutat Vella,8002,BARCELONA,TRUE,63733072,Parades Taxi,Planol BCN >> Transports i serveis relacionats >> Transports adicionals >> Parades Taxi,651,6.5103E+13,430629.9113,4581910.16,41.38572906,2.170310443
?99400603093,"Parada de taxis * C Ciutat de Granada, 164",148704,C Ciutat de Granada,164,,66,el Parc i la Llacuna del Poblenou,10,Sant Martí,8018,BARCELONA,TRUE,63733072,Parades Taxi,Planol BCN >> Transports i serveis relacionats >> Transports adicionals >> Parades Taxi,651,6.5103E+13,432295.9107,4583970.534,41.40442821,2.190004065
?99400603094,"Parada de taxis * C Sancho de Ávila, 12",311703,C Sancho de Ávila,12,,66,el Parc i la Llacuna del Poblenou,10,Sant Martí,8018,BARCELONA,TRUE,63733072,Parades Taxi,Planol BCN >> Transports i serveis relacionats >> Transports adicionals >> Parades Taxi,651,6.5103E+13,432147.6093,4583180.314,41.39729843,2.188318561
?99400603097,"Parada de taxis * C Torre Melina, 7",700761,C Torre Melina,7,,20,la Maternitat i Sant Ramon,4,Les Corts,8028,BARCELONA,TRUE,63733072,Parades Taxi,Planol BCN >> Transports i serveis relacionats >> Transports adicionals >> Parades Taxi,651,6.5103E+13,425507.0821,4581593.078,41.38241519,2.109085533
?99400603257,"Parada de taxis * C Lepant, 150",178308,C Lepant,150,,5,el Fort Pienc,2,Eixample,8013,BARCELONA,TRUE,63733072,Parades Taxi,Planol BCN >> Transports i serveis relacionats >> Transports adicionals >> Parades Taxi,651,6.5103E+13,431861.076,4583291.759,41.39827796,2.184878709
?99400603261,"Parada de taxis * C Ramon Trias Fargas, 1",132908,C Ramon Trias Fargas,1,,3,la Barceloneta,1,Ciutat Vella,8005,BARCELONA,TRUE,63733072,Parades Taxi,Planol BCN >> Transports i serveis relacionats >> Transports adicionals >> Parades Taxi,651,6.5103E+13,432809.4071,4581906.778,41.3858836,2.19637582
?99400603267,"Parada de taxis * Pg Taulat, 280",701278,Pg Taulat,280,,69,Diagonal Mar i el Front Marítim del Poblenou,10,Sant Martí,8019,BARCELONA,TRUE,63733072,Parades Taxi,Planol BCN >> Transports i serveis relacionats >> Transports adicionals >> Parades Taxi,651,6.5103E+13,434742.3148,4584667.665,41.41090941,2.219194443
?99400603277,"Parada de taxis * C Josep Pla, 20",143609,C Josep Pla,20,,69,Diagonal Mar i el Front Marítim del Poblenou,10,Sant Martí,8019,BARCELONA,TRUE,63733072,Parades Taxi,Planol BCN >> Transports i serveis relacionats >> Transports adicionals >> Parades Taxi,651,6.5103E+13,434566.3435,4584339.427,41.40793874,2.217124636
?99400603279,"Parada de taxis * C Foc, 25",135203,C Foc,25,,13,la Marina de Port,3,Sants-Montjuïc,8038,BARCELONA,TRUE,63733072,Parades Taxi,Planol BCN >> Transports i serveis relacionats >> Transports adicionals >> Parades Taxi,651,6.5103E+13,427861.7629,4578491.377,41.35469387,2.137612742
?99400602993,"Parada de taxis * Pl Urquinaona, 6",232902,Pl Urquinaona,6,,7,la Dreta de l'Eixample,2,Eixample,8010,BARCELONA,TRUE,63733072,Parades Taxi,Planol BCN >> Transports i serveis relacionats >> Transports adicionals >> Parades Taxi,651,6.5103E+13,430877.0668,4582350.378,41.38971525,2.173215979
?99400602999,"Parada de taxis * C Xuclà, 8",368802,C Xuclà,8,,1,el Raval,1,Ciutat Vella,8001,BARCELONA,TRUE,63733072,Parades Taxi,Planol BCN >> Transports i serveis relacionats >> Transports adicionals >> Parades Taxi,651,6.5103E+13,430647.6892,4581653.2,41.38341624,2.170552464
?99400603189,"Parada de taxis * Pl Dante, 9999",97705,Pl Dante,9999,,11,el Poble-sec,3,Sants-Montjuïc,8038,BARCELONA,TRUE,63733072,Parades Taxi,Planol BCN >> Transports i serveis relacionats >> Transports adicionals >> Parades Taxi,651,6.5103E+13,430149.1733,4580024.014,41.36869954,2.164778608
?99400603191,"Parada de taxis * C Menorca, 80",208205,C Menorca,80,,72,Sant Martí de Provençals,10,Sant Martí,8020,BARCELONA,TRUE,63733072,Parades Taxi,Planol BCN >> Transports i serveis relacionats >> Transports adicionals >> Parades Taxi,651,6.5103E+13,433068.7998,4585812.379,41.4210819,2.199046102
?99400603192,"Parada de taxis * Rbla Guipúscoa, 70",153205,Rbla Guipúscoa,70,,72,Sant Martí de Provençals,10,Sant Martí,8020,BARCELONA,TRUE,63733072,Parades Taxi,Planol BCN >> Transports i serveis relacionats >> Transports adicionals >> Parades Taxi,651,6.5103E+13,432973.8918,4585336.783,41.41679043,2.197963166
?99400603194,"Parada de taxis * C Marquesa de Vilallonga, 15",200305,C Marquesa de Vilallonga,15,,25,Sant Gervasi - la Bonanova,5,Sarrià-Sant Gervasi,8017,BARCELONA,TRUE,63733072,Parades Taxi,Planol BCN >> Transports i serveis relacionats >> Transports adicionals >> Parades Taxi,651,6.5103E+13,427027.0658,4584165.337,41.40572173,2.126952116
?99400603198,"Parada de taxis * C Marina, 18",197302,C Marina,18,,67,la Vila Olímpica del Poblenou,10,Sant Martí,8005,BARCELONA,TRUE,63733072,Parades Taxi,Planol BCN >> Transports i serveis relacionats >> Transports adicionals >> Parades Taxi,651,6.5103E+13,432868.9775,4582066.241,41.38732481,2.197070566
?99400603202,"Parada de taxis * C Rambla, 72",34308,C Rambla,72,,2,el Barri Gòtic,1,Ciutat Vella,8002,BARCELONA,TRUE,63733072,Parades Taxi,Planol BCN >> Transports i serveis relacionats >> Transports adicionals >> Parades Taxi,651,6.5103E+13,430915.9006,4581359.234,41.38079165,2.173793443
?99400603060,"Parada de taxis * C Àvila, 1",29206,C Àvila,1,,67,la Vila Olímpica del Poblenou,10,Sant Martí,8005,BARCELONA,TRUE,63733072,Parades Taxi,Planol BCN >> Transports i serveis relacionats >> Transports adicionals >> Parades Taxi,651,6.5103E+13,433074.3293,4582783.049,41.39379803,2.199447272
?99400603045,"Parada de taxis * C Rector Triadó, 106",246703,C Rector Triadó,106,,15,Hostafrancs,3,Sants-Montjuïc,8014,BARCELONA,TRUE,63733072,Parades Taxi,Planol BCN >> Transports i serveis relacionats >> Transports adicionals >> Parades Taxi,651,6.5103E+13,428272.9893,4581255.642,41.37962738,2.142201323
?99400603050,"Parada de taxis * C Sant Adrià, 119",295709,C Sant Adrià,119,,59,el Bon Pastor,9,Sant Andreu,8030,BARCELONA,TRUE,63733072,Parades Taxi,Planol BCN >> Transports i serveis relacionats >> Transports adicionals >> Parades Taxi,651,6.5103E+13,433578.0865,4587487.696,41.43621323,2.204956011
?99400603132,"Parada de taxis * Pg Zona Franca, 45",369408,Pg Zona Franca,45,,12,la Marina del Prat Vermell,3,Sants-Montjuïc,8038,BARCELONA,TRUE,63733072,Parades Taxi,Planol BCN >> Transports i serveis relacionats >> Transports adicionals >> Parades Taxi,651,6.5103E+13,428368.383,4578406.192,41.35397186,2.143678611
?99400603137,"Parada de taxis * C Muntaner, 227",223606,C Muntaner,227,,26,Sant Gervasi - Galvany,5,Sarrià-Sant Gervasi,8021,BARCELONA,TRUE,63733072,Parades Taxi,Planol BCN >> Transports i serveis relacionats >> Transports adicionals >> Parades Taxi,651,6.5103E+13,428868.7012,4582895.02,41.39444553,2.149132325
?99400603139,"Parada de taxis * C Almogàvers, 125",11200,C Almogàvers,125,,66,el Parc i la Llacuna del Poblenou,10,Sant Martí,8018,BARCELONA,TRUE,63733072,Parades Taxi,Planol BCN >> Transports i serveis relacionats >> Transports adicionals >> Parades Taxi,651,6.5103E+13,432324.1126,4583207.464,41.39755784,2.190426737
?99400603140,"Parada de taxis * Pl Catalunya, 6",74404,Pl Catalunya,6,,7,la Dreta de l'Eixample,2,Eixample,8002,BARCELONA,TRUE,63733072,Parades Taxi,Planol BCN >> Transports i serveis relacionats >> Transports adicionals >> Parades Taxi,651,6.5103E+13,430521.7503,4582045.79,41.38694131,2.169001377
?99400603143,"Parada de taxis * C Ciutat de Granada, 143",148704,C Ciutat de Granada,143,,66,el Parc i la Llacuna del Poblenou,10,Sant Martí,8018,BARCELONA,TRUE,63733072,Parades Taxi,Planol BCN >> Transports i serveis relacionats >> Transports adicionals >> Parades Taxi,651,6.5103E+13,432402.5697,4583864.337,41.4034807,2.191291846
?99400603144,"Parada de taxis * C Fernando Pessoa, 47",701334,C Fernando Pessoa,47,,60,Sant Andreu,9,Sant Andreu,8030,BARCELONA,TRUE,63733072,Parades Taxi,Planol BCN >> Transports i serveis relacionats >> Transports adicionals >> Parades Taxi,651,6.5103E+13,432576.9951,4588278.272,41.44325025,2.192886255
?99400603147,"Parada de taxis * Pg Manuel Girona, 29",193108,Pg Manuel Girona,29,,23,Sarrià,5,Sarrià-Sant Gervasi,8034,BARCELONA,TRUE,63733072,Parades Taxi,Planol BCN >> Transports i serveis relacionats >> Transports adicionals >> Parades Taxi,651,6.5103E+13,426745.6709,4582529.479,41.39096269,2.123783805
?99400603151,"Parada de taxis * C Mallorca, 220",191204,C Mallorca,220,,8,l'Antiga Esquerra de l'Eixample,2,Eixample,8008,BARCELONA,TRUE,63733072,Parades Taxi,Planol BCN >> Transports i serveis relacionats >> Transports adicionals >> Parades Taxi,651,6.5103E+13,429737.9048,4582552.597,41.39143787,2.159568325
?99400603153,"Parada de taxis * C Aragó, 278",18505,C Aragó,278,,7,la Dreta de l'Eixample,2,Eixample,8007,BARCELONA,TRUE,63733072,Parades Taxi,Planol BCN >> Transports i serveis relacionats >> Transports adicionals >> Parades Taxi,651,6.5103E+13,430223.1161,4582657.016,41.39242057,2.165359498
?99400603154,"Parada de taxis * C Aragó, 73",18505,C Aragó,73,,9,la Nova Esquerra de l'Eixample,2,Eixample,8015,BARCELONA,TRUE,63733072,Parades Taxi,Planol BCN >> Transports i serveis relacionats >> Transports adicionals >> Parades Taxi,651,6.5103E+13,428952.8147,4581444.134,41.38138537,2.15030854
?99400603155,"Parada de taxis * Av Borbó, 5",45701,Av Borbó,5,,44,Vilapicina i la Torre Llobeta,8,Nou Barris,8031,BARCELONA,TRUE,63733072,Parades Taxi,Planol BCN >> Transports i serveis relacionats >> Transports adicionals >> Parades Taxi,651,6.5103E+13,431147.6113,4586430.176,41.42648383,2.175987483
?99400603156,"Parada de taxis * C Aragó, 585",18505,C Aragó,585,,64,el Camp de l'Arpa del Clot,10,Sant Martí,8026,BARCELONA,TRUE,63733072,Parades Taxi,Planol BCN >> Transports i serveis relacionats >> Transports adicionals >> Parades Taxi,651,6.5103E+13,431940.002,4584367.63,41.40797468,2.185701813
?99400603163,"Parada de taxis * C València, 543",350308,C València,543,,6,la Sagrada Família,2,Eixample,8013,BARCELONA,TRUE,63733072,Parades Taxi,Planol BCN >> Transports i serveis relacionats >> Transports adicionals >> Parades Taxi,651,6.5103E+13,431631.0631,4584252.186,41.4069087,2.182018941
?99400603167,"Parada de taxis * Av Madrid, 178",187207,Av Madrid,178,,18,Sants,3,Sants-Montjuïc,8028,BARCELONA,TRUE,63733072,Parades Taxi,Planol BCN >> Transports i serveis relacionats >> Transports adicionals >> Parades Taxi,651,6.5103E+13,427429.5045,4581375,41.38062675,2.132100718
?99400603170,"Parada de taxis * C Equador, 8",107004,C Equador,8,,18,Sants,3,Sants-Montjuïc,8029,BARCELONA,TRUE,63733072,Parades Taxi,Planol BCN >> Transports i serveis relacionats >> Transports adicionals >> Parades Taxi,651,6.5103E+13,428241.9245,4581820.785,41.38471463,2.141762928
?99400603176,"Parada de taxis * Av Marquès de l'Argentera, 6",198203,Av Marquès de l'Argentera,6,,4,"Sant Pere, Santa Caterina i la Ribera",1,Ciutat Vella,8003,BARCELONA,TRUE,63733072,Parades Taxi,Planol BCN >> Transports i serveis relacionats >> Transports adicionals >> Parades Taxi,651,6.5103E+13,431858.0234,4581747.469,41.38436873,2.185015935
?99400603159,"Parada de taxis * Pl Catalunya, 17",74404,Pl Catalunya,17,,2,el Barri Gòtic,1,Ciutat Vella,8002,BARCELONA,TRUE,63733072,Parades Taxi,Planol BCN >> Transports i serveis relacionats >> Transports adicionals >> Parades Taxi,651,6.5103E+13,430723.3713,4582040.262,41.38690891,2.171413267
?99400603160,"Parada de taxis * C Cristóbal de Moura, 137",94300,C Cristóbal de Moura,137,,71,Provençals del Poblenou,10,Sant Martí,8019,BARCELONA,TRUE,63733072,Parades Taxi,Planol BCN >> Transports i serveis relacionats >> Transports adicionals >> Parades Taxi,651,6.5103E+13,433870.5502,4584866.398,41.4126281,2.208743042
?99400603172,"Parada de taxis * C Berruguete, 126",41201,C Berruguete,126,,41,la Vall d'Hebron,7,Horta-Guinardó,8035,BARCELONA,TRUE,63733072,Parades Taxi,Planol BCN >> Transports i serveis relacionats >> Transports adicionals >> Parades Taxi,651,6.5103E+13,428764.9643,4587254.002,41.43369592,2.147378307
?99400603173,"Parada de taxis * C Llobregós, 89",185700,C Llobregós,89,,37,el Carmel,7,Horta-Guinardó,8032,BARCELONA,TRUE,63733072,Parades Taxi,Planol BCN >> Transports i serveis relacionats >> Transports adicionals >> Parades Taxi,651,6.5103E+13,429651.9979,4586316.596,41.42533128,2.158103311
?99400603179,"Parada de taxis * C Enric Granados, 141",110304,C Enric Granados,141,,8,l'Antiga Esquerra de l'Eixample,2,Eixample,8008,BARCELONA,TRUE,63733072,Parades Taxi,Planol BCN >> Transports i serveis relacionats >> Transports adicionals >> Parades Taxi,651,6.5103E+13,429270.5843,4582841.397,41.39399802,2.153945381
?99400603031,"Parada de taxis * C Mallorca, 178",191204,C Mallorca,178,,8,l'Antiga Esquerra de l'Eixample,2,Eixample,8036,BARCELONA,TRUE,63733072,Parades Taxi,Planol BCN >> Transports i serveis relacionats >> Transports adicionals >> Parades Taxi,651,6.5103E+13,429472.4905,4582294.974,41.38909431,2.156423929
?99400603033,"Parada de taxis * Rbla Badal, 154",30602,Rbla Badal,154,,18,Sants,3,Sants-Montjuïc,8028,BARCELONA,TRUE,63733072,Parades Taxi,Planol BCN >> Transports i serveis relacionats >> Transports adicionals >> Parades Taxi,651,6.5103E+13,427366.6863,4580556.071,41.37324531,2.131447668
?99400603038,"Parada de taxis * C Bailèn, 5",31300,C Bailèn,5,,7,la Dreta de l'Eixample,2,Eixample,8010,BARCELONA,TRUE,63733072,Parades Taxi,Planol BCN >> Transports i serveis relacionats >> Transports adicionals >> Parades Taxi,651,6.5103E+13,431252.1281,4582561.136,41.39164563,2.177677747
?99400603039,"Parada de taxis * Rda Sant Pere, 27",309406,Rda Sant Pere,27,,7,la Dreta de l'Eixample,2,Eixample,8010,BARCELONA,TRUE,63733072,Parades Taxi,Planol BCN >> Transports i serveis relacionats >> Transports adicionals >> Parades Taxi,651,6.5103E+13,431029.6463,4582375.154,41.3899515,2.17503799
?99400603049,"Parada de taxis * C Loreto, 17",180900,C Loreto,17,,19,les Corts,4,Les Corts,8029,BARCELONA,TRUE,63733072,Parades Taxi,Planol BCN >> Transports i serveis relacionats >> Transports adicionals >> Parades Taxi,651,6.5103E+13,428264.1632,4582362.78,41.38959816,2.141964698
?99400603135,"Parada de taxis * Pl Carlos Ibáñez, 3",66600,Pl Carlos Ibáñez,3,,11,el Poble-sec,3,Sants-Montjuïc,8038,BARCELONA,TRUE,63733072,Parades Taxi,Planol BCN >> Transports i serveis relacionats >> Transports adicionals >> Parades Taxi,651,6.5103E+13,430654.7324,4580275.297,41.37100648,2.170794338
?99400603214,"Parada de taxis * C Rambla, 44",34308,C Rambla,44,,2,el Barri Gòtic,1,Ciutat Vella,8002,BARCELONA,TRUE,63733072,Parades Taxi,Planol BCN >> Transports i serveis relacionats >> Transports adicionals >> Parades Taxi,651,6.5103E+13,431001.6068,4581223.93,41.37958037,2.174833743
?99400603215,"Parada de taxis * C Tànger, 162",330107,C Tànger,162,,68,el Poblenou,10,Sant Martí,8018,BARCELONA,TRUE,63733072,Parades Taxi,Planol BCN >> Transports i serveis relacionats >> Transports adicionals >> Parades Taxi,651,6.5103E+13,432830.6355,4584044.248,41.40513699,2.196392601
?99400603217,"Parada de taxis * C Torre Melina, 2",700761,C Torre Melina,2,,20,la Maternitat i Sant Ramon,4,Les Corts,8028,BARCELONA,TRUE,63733072,Parades Taxi,Planol BCN >> Transports i serveis relacionats >> Transports adicionals >> Parades Taxi,651,6.5103E+13,425498.1813,4581525.942,41.38180971,2.108987347
?99400603224,"Parada de taxis * C Comte d'Urgell, 154",349706,C Comte d'Urgell,154,,8,l'Antiga Esquerra de l'Eixample,2,Eixample,8036,BARCELONA,TRUE,63733072,Parades Taxi,Planol BCN >> Transports i serveis relacionats >> Transports adicionals >> Parades Taxi,651,6.5103E+13,429229.3669,4581956.775,41.38602692,2.153555753
?99400603225,"Parada de taxis * Ctra Vallvidrera al Tibidabo, 27",335654,Ctra Vallvidrera al Tibidabo,27,,22,"Vallvidrera, el Tibidabo i les Planes",5,Sarrià-Sant Gervasi,8035,BARCELONA,TRUE,63733072,Parades Taxi,Planol BCN >> Transports i serveis relacionats >> Transports adicionals >> Parades Taxi,651,6.5103E+13,426482.4906,4586392.806,41.42573386,2.120166853
?99400603226,"Parada de taxis * Pl Sant Gregori Taumaturg, 1",302702,Pl Sant Gregori Taumaturg,1,,26,Sant Gervasi - Galvany,5,Sarrià-Sant Gervasi,8021,BARCELONA,TRUE,63733072,Parades Taxi,Planol BCN >> Transports i serveis relacionats >> Transports adicionals >> Parades Taxi,651,6.5103E+13,427942.3842,4582944.802,41.39481144,2.138047057
?99400603229,"Parada de taxis * C Mallorca, 400",191204,C Mallorca,400,,6,la Sagrada Família,2,Eixample,8013,BARCELONA,TRUE,63733072,Parades Taxi,Planol BCN >> Transports i serveis relacionats >> Transports adicionals >> Parades Taxi,651,6.5103E+13,430962.1017,4583786.951,41.40266131,2.174069199
?99400603230,"Parada de taxis * Pg Sant Antoni, 55",296406,Pg Sant Antoni,55,,18,Sants,3,Sants-Montjuïc,8014,BARCELONA,TRUE,63733072,Parades Taxi,Planol BCN >> Transports i serveis relacionats >> Transports adicionals >> Parades Taxi,651,6.5103E+13,428208.031,4581204.808,41.37916374,2.141430578
?99400603181,"Parada de taxis * C Tamarit, 138",329902,C Tamarit,138,,10,Sant Antoni,2,Eixample,8015,BARCELONA,TRUE,63733072,Parades Taxi,Planol BCN >> Transports i serveis relacionats >> Transports adicionals >> Parades Taxi,651,6.5103E+13,429742.3691,4581018.317,41.37761951,2.15979963
?99400603187,"Parada de taxis * C Rambla, 134",34308,C Rambla,134,,2,el Barri Gòtic,1,Ciutat Vella,8002,BARCELONA,TRUE,63733072,Parades Taxi,Planol BCN >> Transports i serveis relacionats >> Transports adicionals >> Parades Taxi,651,6.5103E+13,430664.391,4581808.336,41.38481494,2.170734443
?99400603195,"Parada de taxis * C Buenos Aires, 20",51205,C Buenos Aires,20,,8,l'Antiga Esquerra de l'Eixample,2,Eixample,8029,BARCELONA,TRUE,63733072,Parades Taxi,Planol BCN >> Transports i serveis relacionats >> Transports adicionals >> Parades Taxi,651,6.5103E+13,428599.0699,4582564.29,41.39144288,2.145946348
?99400603196,"Parada de taxis * G.V. Corts Catalanes, 660",169409,G.V. Corts Catalanes,660,,7,la Dreta de l'Eixample,2,Eixample,8010,BARCELONA,TRUE,63733072,Parades Taxi,Planol BCN >> Transports i serveis relacionats >> Transports adicionals >> Parades Taxi,651,6.5103E+13,430691.0836,4582514.81,41.39118023,2.170972829
?99400603197,"Parada de taxis * C Tuset, 20",348408,C Tuset,20,,26,Sant Gervasi - Galvany,5,Sarrià-Sant Gervasi,8006,BARCELONA,TRUE,63733072,Parades Taxi,Planol BCN >> Transports i serveis relacionats >> Transports adicionals >> Parades Taxi,651,6.5103E+13,429112.0328,4583059.889,41.39595194,2.152023434
?99400603199,"Parada de taxis * C Loreto, 34",180900,C Loreto,34,,19,les Corts,4,Les Corts,8029,BARCELONA,TRUE,63733072,Parades Taxi,Planol BCN >> Transports i serveis relacionats >> Transports adicionals >> Parades Taxi,651,6.5103E+13,428279.078,4582454.959,41.39042971,2.142132161
?99400603201,"Parada de taxis * C València, 112",350308,C València,112,,9,la Nova Esquerra de l'Eixample,2,Eixample,8015,BARCELONA,TRUE,63733072,Parades Taxi,Planol BCN >> Transports i serveis relacionats >> Transports adicionals >> Parades Taxi,651,6.5103E+13,429032.0489,4581696.68,41.38366696,2.151226466
?99400603232,"Parada de taxis * Pl Francesc Macià, 10",55807,Pl Francesc Macià,10,,8,l'Antiga Esquerra de l'Eixample,2,Eixample,8036,BARCELONA,TRUE,63733072,Parades Taxi,Planol BCN >> Transports i serveis relacionats >> Transports adicionals >> Parades Taxi,651,6.5103E+13,428528.9625,4582696.692,41.39262916,2.145092233
?99400603236,"Parada de taxis * Rda Litoral (Besòs), 114",701265,Rda Litoral (Besòs),114,,12,la Marina del Prat Vermell,3,Sants-Montjuïc,8038,BARCELONA,TRUE,63733072,Parades Taxi,Planol BCN >> Transports i serveis relacionats >> Transports adicionals >> Parades Taxi,651,6.5103E+13,431045.1256,4580257.151,41.37087659,2.175464117
?99400603248,"Parada de taxis * C Europa, 14",118306,C Europa,14,,19,les Corts,4,Les Corts,8028,BARCELONA,TRUE,63733072,Parades Taxi,Planol BCN >> Transports i serveis relacionats >> Transports adicionals >> Parades Taxi,651,6.5103E+13,427181.8678,4582059.144,41.38676619,2.129057241
?99400603250,"Parada de taxis * C Mas Casanovas, 71",192604,C Mas Casanovas,71,,35,el Guinardó,7,Horta-Guinardó,8041,BARCELONA,TRUE,63733072,Parades Taxi,Planol BCN >> Transports i serveis relacionats >> Transports adicionals >> Parades Taxi,651,6.5103E+13,430946.5095,4585192.767,41.41532167,2.173722262
?99400603251,"Parada de taxis * Av Meridiana, 400",209900,Av Meridiana,400,,60,Sant Andreu,9,Sant Andreu,8030,BARCELONA,TRUE,63733072,Parades Taxi,Planol BCN >> Transports i serveis relacionats >> Transports adicionals >> Parades Taxi,651,6.5103E+13,431782.3851,4586922.829,41.43097514,2.183528
?99400603183,"Parada de taxis * Pg Fabra i Puig, 301",119003,Pg Fabra i Puig,301,,44,Vilapicina i la Torre Llobeta,8,Nou Barris,8031,BARCELONA,TRUE,63733072,Parades Taxi,Planol BCN >> Transports i serveis relacionats >> Transports adicionals >> Parades Taxi,651,6.5103E+13,430533.8972,4586864.93,41.43034666,2.16859345
?99400603184,"Parada de taxis * C Còrsega, 597",90502,C Còrsega,597,,6,la Sagrada Família,2,Eixample,8025,BARCELONA,TRUE,63733072,Parades Taxi,Planol BCN >> Transports i serveis relacionats >> Transports adicionals >> Parades Taxi,651,6.5103E+13,430972.9164,4584363.214,41.40785244,2.174132847
?99400603186,"Parada de taxis * Rda Sant Antoni, 84",296508,Rda Sant Antoni,84,,1,el Raval,1,Ciutat Vella,8001,BARCELONA,TRUE,63733072,Parades Taxi,Planol BCN >> Transports i serveis relacionats >> Transports adicionals >> Parades Taxi,651,6.5103E+13,430089.4096,4581706.978,41.38385229,2.163869964
?99400603193,"Parada de taxis * C Provença, 175",268003,C Provença,175,,8,l'Antiga Esquerra de l'Eixample,2,Eixample,8036,BARCELONA,TRUE,63733072,Parades Taxi,Planol BCN >> Transports i serveis relacionats >> Transports adicionals >> Parades Taxi,651,6.5103E+13,429423.1169,4582454.767,41.39052918,2.155814817
?99400603204,"Parada de taxis * Pg Zona Franca, 136",369408,Pg Zona Franca,136,,13,la Marina de Port,3,Sants-Montjuïc,8038,BARCELONA,TRUE,63733072,Parades Taxi,Planol BCN >> Transports i serveis relacionats >> Transports adicionals >> Parades Taxi,651,6.5103E+13,428114.2054,4578900.416,41.35840052,2.140581814
?99400603054,"Parada de taxis * Ctra Carmel, 9999",67001,Ctra Carmel,9999,,37,el Carmel,7,Horta-Guinardó,8024,BARCELONA,TRUE,63733072,Parades Taxi,Planol BCN >> Transports i serveis relacionats >> Transports adicionals >> Parades Taxi,651,6.5103E+13,429408.1955,4585186.959,41.41513571,2.155317736
?99400603057,"Parada de taxis * C Consell de Cent, 441",89004,C Consell de Cent,441,,7,la Dreta de l'Eixample,2,Eixample,8013,BARCELONA,TRUE,63733072,Parades Taxi,Planol BCN >> Transports i serveis relacionats >> Transports adicionals >> Parades Taxi,651,6.5103E+13,430956.6878,4583218.237,41.39753862,2.174069296
?99400603059,"Parada de taxis * C Josep Ferrater i Móra, 2",701205,C Josep Ferrater i Móra,2,,69,Diagonal Mar i el Front Marítim del Poblenou,10,Sant Martí,8019,BARCELONA,TRUE,63733072,Parades Taxi,Planol BCN >> Transports i serveis relacionats >> Transports adicionals >> Parades Taxi,651,6.5103E+13,434170.4045,4583782.989,41.40289472,2.212448406
?99400603074,"Parada de taxis * C Pujades, 167",270901,C Pujades,167,,68,el Poblenou,10,Sant Martí,8005,BARCELONA,TRUE,63733072,Parades Taxi,Planol BCN >> Transports i serveis relacionats >> Transports adicionals >> Parades Taxi,651,6.5103E+13,433157.7414,4583644.984,41.40156819,2.200349785
?99400603077,"Parada de taxis * C Consell de Cent, 250",89004,C Consell de Cent,250,,8,l'Antiga Esquerra de l'Eixample,2,Eixample,8011,BARCELONA,TRUE,63733072,Parades Taxi,Planol BCN >> Transports i serveis relacionats >> Transports adicionals >> Parades Taxi,651,6.5103E+13,429832.259,4582078.288,41.38717416,2.160751757
?99400603003,"Parada de taxis * Pl Karl Marx, 1",700013,Pl Karl Marx,1,,43,Horta,7,Horta-Guinardó,8035,BARCELONA,TRUE,63733072,Parades Taxi,Planol BCN >> Transports i serveis relacionats >> Transports adicionals >> Parades Taxi,651,6.5103E+13,430031.4558,4588039.285,41.44087998,2.162444619
?99400603007,"Parada de taxis * C Doctor Aiguader, 88",700813,C Doctor Aiguader,88,,3,la Barceloneta,1,Ciutat Vella,8003,BARCELONA,TRUE,63733072,Parades Taxi,Planol BCN >> Transports i serveis relacionats >> Transports adicionals >> Parades Taxi,651,6.5103E+13,432607.1571,4581881.111,41.38563551,2.19395992
?99400603013,"Parada de taxis * C Diputació, 233",100800,C Diputació,233,,7,la Dreta de l'Eixample,2,Eixample,8007,BARCELONA,TRUE,63733072,Parades Taxi,Planol BCN >> Transports i serveis relacionats >> Transports adicionals >> Parades Taxi,651,6.5103E+13,430119.0542,4582207.589,41.38836369,2.164166733
?99400603026,"Parada de taxis * C Roger de Llúria, 16",176801,C Roger de Llúria,16,,7,la Dreta de l'Eixample,2,Eixample,8010,BARCELONA,TRUE,63733072,Parades Taxi,Planol BCN >> Transports i serveis relacionats >> Transports adicionals >> Parades Taxi,651,6.5103E+13,430818.2373,4582438.911,41.39050759,2.172502275
?99400603103,"Parada de taxis * Av República Argentina, 31",279600,Av República Argentina,31,,27,el Putxet i el Farró,5,Sarrià-Sant Gervasi,8023,BARCELONA,TRUE,63733072,Parades Taxi,Planol BCN >> Transports i serveis relacionats >> Transports adicionals >> Parades Taxi,651,6.5103E+13,428729.1312,4584440.968,41.40835693,2.14728097
?99400603111,"Parada de taxis * Pl Doctor Andreu, 1",137402,Pl Doctor Andreu,1,,25,Sant Gervasi - la Bonanova,5,Sarrià-Sant Gervasi,8035,BARCELONA,TRUE,63733072,Parades Taxi,Planol BCN >> Transports i serveis relacionats >> Transports adicionals >> Parades Taxi,651,6.5103E+13,427414.7738,4585328.396,41.41623198,2.131450621
?99400603116,"Parada de taxis * C Espronceda, 2",115603,C Espronceda,2,,69,Diagonal Mar i el Front Marítim del Poblenou,10,Sant Martí,8005,BARCELONA,TRUE,63733072,Parades Taxi,Planol BCN >> Transports i serveis relacionats >> Transports adicionals >> Parades Taxi,651,6.5103E+13,433979.3084,4583595.879,41.4011938,2.210182845
?99400603121,"Parada de taxis * C Tuset, 38",348408,C Tuset,38,,26,Sant Gervasi - Galvany,5,Sarrià-Sant Gervasi,8006,BARCELONA,TRUE,63733072,Parades Taxi,Planol BCN >> Transports i serveis relacionats >> Transports adicionals >> Parades Taxi,651,6.5103E+13,429022.0476,4583159.727,41.3968432,2.150935424
?99400603128,"Parada de taxis * Pl Espanya, 6",114000,Pl Espanya,6,,15,Hostafrancs,3,Sants-Montjuïc,8014,BARCELONA,TRUE,63733072,Parades Taxi,Planol BCN >> Transports i serveis relacionats >> Transports adicionals >> Parades Taxi,651,6.5103E+13,428811.3642,4580795.974,41.37553512,2.148693169
?99400603161,"Parada de taxis * C Llull, 111",186703,C Llull,111,,68,el Poblenou,10,Sant Martí,8005,BARCELONA,TRUE,63733072,Parades Taxi,Planol BCN >> Transports i serveis relacionats >> Transports adicionals >> Parades Taxi,651,6.5103E+13,432869.8773,4583174.073,41.39730284,2.196958535
?99400603164,"Parada de taxis * C Gran de Gràcia, 81",206403,C Gran de Gràcia,81,,31,la Vila de Gràcia,6,Gràcia,8012,BARCELONA,TRUE,63733072,Parades Taxi,Planol BCN >> Transports i serveis relacionats >> Transports adicionals >> Parades Taxi,651,6.5103E+13,429340.2115,4583557.451,41.40045338,2.154694603
?99400603165,"Parada de taxis * C Enric Granados, 77",110304,C Enric Granados,77,,8,l'Antiga Esquerra de l'Eixample,2,Eixample,8008,BARCELONA,TRUE,63733072,Parades Taxi,Planol BCN >> Transports i serveis relacionats >> Transports adicionals >> Parades Taxi,651,6.5103E+13,429532.5018,4582572.844,41.39160225,2.15710932
?99400603169,"Parada de taxis * C Provença, 211",268003,C Provença,211,,8,l'Antiga Esquerra de l'Eixample,2,Eixample,8008,BARCELONA,TRUE,63733072,Parades Taxi,Planol BCN >> Transports i serveis relacionats >> Transports adicionals >> Parades Taxi,651,6.5103E+13,429628.8359,4582665.621,41.3924463,2.158250712
?99400603174,"Parada de taxis * Rda Litoral (Llobregat), 108",701266,Rda Litoral (Llobregat),108,,2,el Barri Gòtic,1,Ciutat Vella,8039,BARCELONA,TRUE,63733072,Parades Taxi,Planol BCN >> Transports i serveis relacionats >> Transports adicionals >> Parades Taxi,651,6.5103E+13,431253.6695,4580766.739,41.37548415,2.177899771
?99400603178,"Parada de taxis * C Laforja, 67",175900,C Laforja,67,,26,Sant Gervasi - Galvany,5,Sarrià-Sant Gervasi,8021,BARCELONA,TRUE,63733072,Parades Taxi,Planol BCN >> Transports i serveis relacionats >> Transports adicionals >> Parades Taxi,651,6.5103E+13,428622.5325,4583179.388,41.39698492,2.146154466
?99400603281,"Parada de taxis * Pl Joan Peiró, 1",700156,Pl Joan Peiró,1,,18,Sants,3,Sants-Montjuïc,8014,BARCELONA,TRUE,63733072,Parades Taxi,Planol BCN >> Transports i serveis relacionats >> Transports adicionals >> Parades Taxi,651,6.5103E+13,428045.5536,4581159.052,41.37873712,2.139493132
?99400603284,"Parada de taxis * Moll Adossat, 8",540074,Moll Adossat,8,,12,la Marina del Prat Vermell,3,Sants-Montjuïc,8039,BARCELONA,TRUE,63733072,Parades Taxi,Planol BCN >> Transports i serveis relacionats >> Transports adicionals >> Parades Taxi,651,6.5103E+13,431112.0293,4578360.886,41.35380316,2.176479407
?99400603287,"Parada de taxis * Pg Mare Nostrum, 13",701644,Pg Mare Nostrum,13,,3,la Barceloneta,1,Ciutat Vella,8039,BARCELONA,TRUE,63733072,Parades Taxi,Planol BCN >> Transports i serveis relacionats >> Transports adicionals >> Parades Taxi,651,6.5103E+13,432184.7225,4580081.393,41.36939041,2.189109317
?99400603028,"Parada de taxis * C Ciutat de Granada, 99",148704,C Ciutat de Granada,99,,66,el Parc i la Llacuna del Poblenou,10,Sant Martí,8018,BARCELONA,TRUE,63733072,Parades Taxi,Planol BCN >> Transports i serveis relacionats >> Transports adicionals >> Parades Taxi,651,6.5103E+13,432657.0042,4583603.802,41.4011555,2.194364492
?99400603034,"Parada de taxis * C Tuset, 38",348408,C Tuset,38,,26,Sant Gervasi - Galvany,5,Sarrià-Sant Gervasi,8006,BARCELONA,TRUE,63733072,Parades Taxi,Planol BCN >> Transports i serveis relacionats >> Transports adicionals >> Parades Taxi,651,6.5103E+13,429021.7307,4583154.802,41.39679882,2.15093221
?99400603046,"Parada de taxis * Pl Sant Gregori Taumaturg, 3",302702,Pl Sant Gregori Taumaturg,3,,26,Sant Gervasi - Galvany,5,Sarrià-Sant Gervasi,8021,BARCELONA,TRUE,63733072,Parades Taxi,Planol BCN >> Transports i serveis relacionats >> Transports adicionals >> Parades Taxi,651,6.5103E+13,427975.2099,4582930.206,41.39468292,2.138441411
?99400603048,"Parada de taxis * C Constança, 20",89605,C Constança,20,,19,les Corts,4,Les Corts,8029,BARCELONA,TRUE,63733072,Parades Taxi,Planol BCN >> Transports i serveis relacionats >> Transports adicionals >> Parades Taxi,651,6.5103E+13,427669.959,4582331.223,41.38926073,2.134861939
